 2002 0630 2334 17.3 L  57.795   7.382 16.5  NAO  2 1.2                 2.5LNAO1
                 7.2     0.1     0.1   39.6                                    5
     534  NORTH SEA                                                            3
 STAT SP IPHASW D HRMM SECON CODA AMPLIT PERI AZIMU VELO AIN AR TRES W  DIS CAZ7
 STAV SZ EP       2334 36.06   58                         62   -1.0810  154 334 
 STAV SN ES       2334 53.59                              62   -0.6310  154 334 
 STAV SZ ESG      2334 55.09                              94   -0.7510  154 334 
 STAV SZ  AMPL    2334 55.84        55.9 0.28                           154 334 
 KMY  SZ EP       2334 40.76   86                         62   -1.2110  193 331 
 KMY  SN ES       2335  2.65                              62    0.0210  193 331 
 KMY  SZ ESG      2335  6.45                              93    0.3710  193 331 
 KMY  SZ  AMPL    2335 10.21        24.6 0.06                           193 331 
 BLS5 SZ EP       2334 42.69  108                         62    0.5610  194 353 
 BLS5 SZ ESG      2335  7.36                              93    0.9810  194 353 
 BLS5 SZ  AMPL    2335  8.41        53.8 0.19                           194 353 
 MUD  HZ EP       2334 41.35                              62   -0.9710  196 134 
 MUD  HZ I        2334 47.53                                            196 134 
 MUD  HE IS       2335  6.03                              62    2.7910  196 134 
 ODD1 SZ ES       2335 14.09                              62   -0.3710  247 357 
 ODD1 SZ ESG      2335 20.13                              92   -0.3010  247 357 
 ODD1 SZ  AMPL    2335 20.53        35.6 0.39                           247 357 
 KONO BZ EP       2334 50.92  183                         62   -0.5010  269  35 
 KONO BZ ESG      2335 26.06                              92   -0.0710  269  35 
 EGD  SZ EP       2334 54.49                              62   -1.0210  302 342 
 ASK  SZ EP       2334 57.30  102                         62   -1.0710  325 344 
 ASK  SZ ES       2335 30.27                              62   -0.9010  325 344 
 ASK  SZ ESG      2335 41.22                              92    0.3210  325 344 
 ASK  SZ  AMPL    2335 46.02        19.8 0.27                           325 344 
 HYA  SZ ESG      2336  0.94                              91    3.3110  389 355 
 SUE  SZ ES       2335 43.60                              59   -2.3010  393 343 
 SUE  SN ESG      2336  1.74                              91    2.8810  393 343 
 SUE  SZ  AMPL    2336  5.37        14.3 0.42                           393 343 
 FOO  SZ ESG      2336 14.39                              91    1.4010  447 347 
 HFS  SZ  Pn      2335 15.93                  247.1  8.9  62  9-1.4010  477  52 
 HFS  SZ  Sn      2336 03.35                  244.2  3.8  62  6-0.8210  477  52 
 HFS  SZ  Lg      2336 23.80                  237.0  3.9 143  0-2.8810  477  52 
 DOMB SZ ESG      2336 31.45                              91    3.4410  504  13 
 BSD  HZ EP       2335 26.63                              59   -2.0910  573 117 
 BSD  HE I        2335 47.82                                            573 117 
 BSD  HN IS       2336 22.38                              59   -1.5910  573 117 
 FIA0 SZ  Pn      2336 40.85                  254.5  9.5  62 -2-0.98 9 1158  61 
 FIA0 SZ  Sn      2338 30.90                  248.1  5.7  62 -8-0.29 9 1158  61 
 FIA0 SZ  Lg      2339 35.57                  249.9  4.5  34 -7-0.12 9 1158  61 
                                                                                
 2002  824 1907 35.8 L  59.977   6.360  0.0  BER 18 0.9 2.1LBER 2.1CBER        1
 GAP= 81        3.81       4.5     9.5 10.3  0.1122E+02 -0.3449E+02 -0.1289E+02E
 ACTION:UP  10-11-04 14:03 OP:alk  STATUS:               ID:20020824190735 L   I
 2002-08-24-1906-47S.WNN___004                                                 6
 2002-08-24-1907-25S.FOO___003                                                 6
 2002-08-24-1907-17S.HYA___003                                                 6
 2002-08-24-1907-12S.KMY___003                                                 6
 2002-08-24-1907-37S.MOL___006                                                 6
 2002-08-24-1906-59S.ODD___003                                                 6
 2002-08-24-1907-10S.RND___003                                                 6
 2002-08-24-1907-19S.SUE___003                                                 6
 2002-08-24-1908-08S.TRN___003                                                 6
 2002-08-24-1907-06S.BLS___003                                                 6
 2002-08-24-1906-02S.KONO__003                                                 6
 2002-08-24-1908-31S.OSL___001                                                 6
 2002-08-24-1907-15S.STA___003                                                 6
 2002-08-24-1907-38S.DOM___001                                                 6
 2002-08-24-1909-38S.NSS___003                                                 6
 2002 0824 1907 38.8 L  60.106   6.762 18.4  NAO  4 1.1                 2.3LNAO1
                 5.6     0.3     0.3   30.8                                    5
     535  SOUTHERN NORWAY                                                      3
 STAT SP IPHASW D HRMM SECON CODA AMPLIT PERI AZIMU VELO AIN AR TRES W  DIS CAZ7
 ODD1 SZ EP       19 7 37.53                              92   -0.9210 16.7 116  
 ODD1 SN ES       19 7 39.58                              92   -0.8610 16.7 116 
 ODD1 SZ  AMPL    19 7 40.21       201.9 0.12                          16.7 116 
 BLS5 SZ IP     C 19 7 47.25  126                         90    1.4910 62.0 175 
 BLS5 SZ ES       19 7 54.59                              90    1.4310 62.0 175 
 BLS5 SZ  AMPL    19 7 55.17       142.9 0.31                          62.0 175 
 EGD  SZ IP     D 19 7 47.09   72                         90   -0.1410 71.1 298 
 EGD  SZ ES       19 7 55.09                              90   -0.6310 71.1 298 
 EGD  SZ  AMPL    19 7 55.88        85.3 0.12                          71.1 298 
 BER  SZ EP       19 7 47.65   70                         90    0.1610 72.7 309 
 BER  SZ ES       19 7 56.05                              90   -0.1210 72.7 309 
 BER  SZ  AMPL    19 8  1.19       142.9 0.13                          72.7 309 
 RUND BZ EP       19 7 47.60   90                         90   -0.0110 73.4 312 
 RUND BZ ES       19 7 56.37                              90    0.0010 73.4 312 
 RUND BZ  AMPL    19 7 56.89        82.5 0.13                          73.4 312 
 ASK  SZ EP       19 7 49.31   49                         90   -0.2710 85.7 312 
 ASK  SZ ES       19 7 59.38                              90   -0.4210 85.7 312 
 ASK  SZ  AMPL    19 8  0.47       118.8 0.10                          85.7 312 
 KMY  SZ EP     D 19 7 52.88  110                         90   -0.1410  107 217 
 KMY  SZ ES       19 8  5.15                              90   -0.6410  107 217 
 KMY  SZ  AMPL    19 8  8.46        91.0 0.29                           107 217 
 STAV SZ EP       19 7 55.36   87                         90   -0.0710  122 198 
 STAV SZ ES       19 8  9.34                              90   -0.6510  122 198 
 STAV SZ I        19 8 11.91                                            122 198 
 STAV SZ  AMPL    19 8 12.53        78.0 0.14                           122 198 
 HYA  SZ EP       19 7 57.72  115                         90    0.5610  133 356 
 HYA  SZ IP     D 19 7 57.78                              90    0.6210  133 356 
 HYA  SZ ES       19 8 13.21                              90    0.2110  133 356 
 HYA  SZ  AMPL    19 8 17.26        46.9 0.14                           133 356 
 SUE  SZ EP       19 7 59.24  103                         70   -0.4110  149 325 
 SUE  SZ ES       19 8 16.62                              70   -0.7210  149 325 
 SUE  SZ  AMPL    19 8 17.59        63.3 0.29                           149 325 
 KONO BZ EP       19 8  4.69  165                         50    0.4510  185 100 
 KONO BN ES       19 8 26.50                              50    1.1810  185 100 
 KONO BZ  AMPL    19 8 27.87       155.8 0.10                           185 100 
 FOO  SZ EP       19 8  4.93  106                         50   -0.4010  194 339 
 FOO  SZ I        19 8  6.11                                            194 339 
 FOO  SZ ES       19 8 28.76                              50    1.5410  194 339 
 FOO  SZ  AMPL    19 8 30.23        44.4 0.23                           194 339 
 OSL  SZ ES   3   19 8 41.82                              50    3.90 2  244  89 
 DOMB SZ EP       19 8 18.49  113                         50    2.8310  277  31 
 DOMB SZ ES       19 8 50.00                              50    4.8110  277  31 
 DOMB SZ  AMPL    19 8 50.63        31.8 0.38                           277  31 
 MOL  SZ EP       19 8 17.65  166                         50   -0.3110  296  12 
 MOL  SZ EPG      19 8 21.12                              90   -2.3510  296  12 
 MOL  SZ ESG      19 8 56.08                              90   -2.7010  296  12 
 MOL  SZ  AMPL    19 8 58.34        13.0 0.00                           296  12 
 HFS  SZ  Pn      1908 31.28                  274.1  7.3  50  3-0.7310  409  84 
 HFS  SZ  Pg      1908 42.15                  271.9  6.0  90  1 0.4510  409  84 
 HFS  SZ  Sn      1909 12.88                  267.7  4.9  50 -2-0.7610  409  84 
 HFS  SZ  Lg      1909 26.55                  279.4  4.0   0  9-2.7710  409  84 
 TRON SN EPG      19 8 45.61                              90   -1.6410  443  27 
 TRON SN ES       19 9 23.67                              49    2.7010  443  27 
 FIA0 SZ  Lg      1912 35.95                  274.4  5.0   0  4-1.10 9 1085  73 
                                                                                
 2003  710 0505 41.3 L  56.719   9.212  7.0F BER 16 0.6 2.1LBER 2.4CBER 2.5LNAO1
 GAP=136        3.24       4.6    11.0  0.0  0.2003E+02  0.8528E+02  0.1402E+03E
 Rmsdep indicates 4-7km depth. Fixed at 7 km. Close to Danish depth. mbs.      3
 2003  710 0505 39.9 L  56.763   9.268  6.9  DNK 16 1.8 2.9CDNK 2.0LDNK        1
 ACTION:UPD 10-11-08 08:01 OP:alk  STATUS:               ID:20030710050541 L   I
 2003-07-10-0505-58S.WNN___004                                                 6
 2003-07-10-0507-48S.FOO___003                                                 6
 2003-07-10-0507-32S.HYA___003                                                 6
 2003-07-10-0505-53S.KMY___003                                                 6
 2003-07-10-0506-44S.ODD___003                                                 6
 2003-07-10-0507-14S.RND___001                                                 6
 2003-07-10-0505-52S.BLS___003                                                 6
 2003-07-10-0504-21S.KONO__003                                                 6
 2003 0710 0505 43.8 L  56.833   9.425 19.4  NAO  4 1.6                 2.5LNAO1
                 5.0     0.2     0.3   32.7                                    5
     542  DENMARK                                                              3
 STAT SP IPHASW D HRMM SECON CODA AMPLIT PERI AZIMU VELO AIN AR TRES W  DIS CAZ7
 MUD  SZ EP        5 5 46.6                              104    0.5110 28.9 185 
 MUD  SZ ES        5 5 50.2                              104    0.5610 28.9 185 
 COP  SZ EP        5 6 14.3                               50   -0.3810  231 119 
 COP  SZ ESG       5 6 45.1                               92   -0.9910  231 119 
 KONO BZ ESg       5 7 13.29                              91    0.1410  327   4 
 BLS5 SZ EP        5 6 29.76  116                         50    1.1710  342 333 
 BLS5 SZ ESG       5 7 16.39                              91   -0.9810  342 333 
 BLS5 SZ  AML      5 7 21.84         9.2 0.40                           342 333 
 KMY  SZ EP        5 6 32.01  112                         50    0.9110  363 321 
 KMY  SZ ESG       5 7 22.14                              91   -1.0310  363 321 
 KMY  SZ  AML      5 7 32.85         6.4 0.44                           363 321 
 ODD1 SZ ESg       5 7 26.83                              91   -2.9510  386 338 
 ODD1 SZ  AML      5 7 33.36        18.0 0.52                           386 338 
 BSD  SZ EP        5 6 34.9                               50   -0.6410  399 114 
 BSD  SZ ES        5 7 14.2                               50   -1.4810  399 114 
 EGD  SZ ESG  9    5 7  4.29                              91   -45.8 0  459 331 
 EGD  SZ  AML      5 7  6.78         7.7 0.48                           459 331 
 HFS  SZ  Pn      0506 44.00                  216.0  8.4  50  0 0.6010  462  33 
 HFS  SZ  Sn      0507 29.43                  219.7  4.0  50  3 0.0710  462  33 
 HFS  SZ  Lg      0507 49.68                  224.1  3.6  26  8 0.1210  462  33 
 RUND SZ ESG       5 7 53.74                              91    0.9910  468 333 
 RUND SZ  AML      5 7 55.41        13.5 0.36                           468 333 
 ASK  SZ EP   9    5 6  3.24  127                         49   -42.2 0  480 333 
 ASK  SZ ESG       5 7 10.15                                   -3.6110  480 333 
 ASK  SZ  AML      5 7 12.25         7.6 0.44                           480 333 
 NB2      Pn       5 6 47.38                              50   -0.2010  495  134
 NB2      Sn       5 7 39.23                              50    2.6010  495  134
 NB2      Lg       5 8  1.40                              47    2.6010  495  134
 HYA  SZ ESg       5 8  9.34                              91    0.6710  525 342 
 HYA  SZ  AML      5 8 11.32         8.4 0.38                           525 342 
 FOO  SZ ESg       5 8 27.18                              91   -0.6510  593 338 
 FOO  SZ  AML      5 8 30.39         4.6 0.48                           593 338 
 FIA0 SZ  Pn      0508 01.22                  248.2  9.0  50  0-1.03 9 1097  54 
 FIA0 SZ  Sn      0509 44.82                  252.4  5.1  50  4-1.73 9 1097  54 
 FIA0 SZ  Lg      0510 45.85                  238.1  4.7 162-10-0.08 9 1097  54 
 ARA0 SZ  P       0509 04.88                  212.1  8.2  47 -4 2.51 6 1637  23 
                                                                                
 2003  9 5 2117 57.1 L  59.474   5.673 15.0  BER 14 0.8 1.9LBER 1.9CBER        1
 GAP=125        2.15       2.6     7.2  7.3  0.2103E+01 -0.1608E+01 -0.1994E+01E
 ACTION:UPD 10-11-08 08:01 OP:alk  STATUS:               ID:20030905211757 L   I
 2003-09-05-2117-54S.FOO___003                                                 6
 2003-09-05-2117-48S.HYA___003                                                 6
 2003-09-05-2118-15S.MOL___006                                                 6
 2003-09-05-2117-46S.SUE___003                                                 6
 2003-09-05-2117-22S.KMY___003                                                 6
 2003-09-05-2117-27S.ODD___003                                                 6
 2003-09-05-2117-10S.WNN___004                                                 6
 2003-09-05-2117-24S.BLS___003                                                 6
 2003-09-05-2115-31S.RND___001                                                 6
 2003-09-05-2117-12S.KONO__003                                                 6
 2003-09-05-2118-50S.DOM___001                                                 6
 2003-09-05-2117-33S.STA___003                                                 6
 STAT SP IPHASW D HRMM SECON CODA AMPLIT PERI AZIMU VELO AIN AR TRES W  DIS CAZ7
 KMY  SZ EP       2118  3.43   73                         90   -0.2810 39.0 219 
 KMY  SZ ESg      2118  8.33                              90   -0.3010 39.0 219 
 KMY  SZ  AML     2118  8.99        97.4 0.11                          39.0 219 
 BLS5 SZ EP       2118  4.79   96                         91    0.2010 44.8  97 
 BLS5 SZ ESg      2118 10.52                              91    0.3610 44.8  97 
 BLS5 SZ  AML     2118 10.70        61.6 0.13                          44.8  97 
 STAV SZ IP     C 2118  6.88   54                         90    0.0210 60.1 178 
 STAV SZ ES       2118 14.35                              90    0.2410 60.1 178 
 STAV SZ  AML     2118 14.44        48.0 0.10                          60.1 178 
 ODD1 SZ IP     C 2118  7.44   62                         91   -1.3210 72.5  47 
 ODD1 SZ ESg      2118 15.77                              91   -1.6510 72.5  47 
 ODD1 SZ  AML     2118 16.40       105.7 0.43                          72.5  47 
 EGD  SZ EP       2118 11.34   94                         90   -0.3610 92.2 344 
 EGD  SZ ES       2118 22.25                              90   -0.2910 92.2 344 
 EGD  SZ  AML     2118 23.85        41.5 0.13                          92.2 344 
 BER  SZ EP       2118 13.15   68                         90   -0.2010  103 350 
 BER  SZ ES       2118 24.86                              90   -0.5510  103 350 
 BER  SZ  AML     2118 25.54        65.0 0.13                           103 350 
 RUND SZ EP       2118 13.74  105                         90   -0.0910  106 351 
 RUND SZ ES       2118 25.75                              90   -0.4810  106 351 
 RUND SZ  AML     2118 26.46        53.3 0.24                           106 351 
 ASK  SZ EP       2118 14.94   64                         90   -0.2910  116 347 
 ASK  SZ ES       2118 28.22                              90   -0.4710  116 347 
 ASK  SZ  AML     2118 30.13        37.2 0.37                           116 347 
 SUE  SZ EP       2118 23.68   91                         50   -0.1110  183 344 
 SUE  SZ EPg      2118 25.34                              90   -0.1810  183 344 
 SUE  SZ ESg      2118 46.58                              90    0.0010  183 344 
 SUE  SZ  AML     2118 47.06        16.6 0.13                           183 344 
 HYA  SZ EP       2118 24.99  101                         50    0.3210  190   8 
 HYA  SZ EPg      2118 26.67                              90    0.0810  190   8 
 HYA  SZ ESg      2118 49.71                              90    1.2710  190   8 
 HYA  SZ  AML     2118 50.55        14.5 0.37                           190   8 
 KONO BZ EP       2118 29.14  126                         50    0.4510  223  83 
 KONO BZ ESg      2118 56.45                              90   -0.5110  223  83 
 KONO BZ  AML     2118 57.33        62.6 0.14                           223  83 
 FOO  SZ EPg      2118 33.61   88                         90   -0.3410  239 352 
 FOO  SN ES       2118 56.43                              50    0.8210  239 352 
 FOO  SZ ESg      2119  0.92                              90   -0.3410  239 352 
 FOO  SZ  AML     2119  3.46        15.8 0.32                           239 352 
 DOMB SZ ESg      2119 28.90                              90   -0.3010  345  31 
 MOL  SZ EP       2118 47.67  166                         50    2.0010  360  16 
 MOL  SZ ES       2119 23.96                              50    2.3110  360  16 
 MOL  SZ  AML     2119 41.93         3.7 0.44                           360  16                                                                                 
                                                                                
 2003 12 3 0034 45.7 L* 57.910   8.476 15.0F BER 16 0.6 1.9LBER 2.1CBER 2.2LNAO1
