 2004  5 2 1924 53.8 L*                      BER        1.8WBER                1
 SPEC AVERAGE  MO 11.7 ST0.709 OM  1.2 f0 7.62 R0.1757 AL 1.47 WI  9.4 MW  1.8 3
 SPEC SD       MO  0.3 ST0.503 OM  0.6 f0 1.75 R0.0458 AL      WI      MW  0.2 3
 GAP= 89        3.06       4.4     7.3  0.0  0.2854E+01 -0.3159E+08 -0.9423E+06E
 SPEC SUE S  Z MO 11.6 ST0.697 OM  0.3 f0 9.56 R0.1318 AL 1.41 WI  8.4 MW  1.7 3
 SPEC SUE S  Z T192534 K 0.000 GD  124 VS 3.60 DE 3.00 Q0440.0 QA 0.70 VS 3.60 3
 SPEC ASK S  Z MO 12.1 ST  1.4 OM  1.0 f0 7.90 R0.1595 AL 1.25 WI  8.8 MW  2.0 3
 SPEC ASK S  Z T192517 K 0.000 GD 88.9 VS 3.60 DE 3.00 Q0440.0 QA 0.70 VS 3.60 3
 SPEC EGD S  Z MO 11.9 ST  1.5 OM  0.9 f0 9.32 R0.1352 AL 1.33 WI  6.8 MW  1.9 3
 SPEC EGD S  Z T192512 K 0.000 GD 72.0 VS 3.60 DE 3.00 Q0440.0 QA 0.70 VS 3.60 3
 SPEC SNARS  Z MO 11.9 ST0.430 OM  0.6 f0 6.29 R0.2003 AL 2.34 WI  9.3 MW  1.9 3
 SPEC SNARS  Z T192540 K 0.000 GD  134 VS 3.60 DE 3.00 Q0440.0 QA 0.70 VS 3.60 3
 SPEC RUNDS  Z MO 11.9 ST0.371 OM  0.8 f0 6.19 R0.2036 AL 1.31 WI 11.6 MW  1.8 3
 SPEC RUNDS  Z T192513 K 0.000 GD 77.0 VS 3.60 DE 3.00 Q0440.0 QA 0.70 VS 3.60 3
 SPEC BLS5S  Z MO 11.4 ST0.059 OM  0.5 f0 4.77 R0.2642 AL 1.26 WI 10.7 MW  1.5 3
 SPEC BLS5S  Z T1925 7 K 0.000 GD 53.3 VS 3.60 DE 3.00 Q0440.0 QA 0.70 VS 3.60 3
 SPEC KMY S  Z MO 11.4 ST0.499 OM  0.3 f0 9.31 R0.1353 AL 1.42 WI 10.0 MW  1.6 3
 SPEC KMY S  Z T192517 K 0.000 GD 96.1 VS 3.60 DE 3.00 Q0440.0 QA 0.70 VS 3.60 3
 Depth fixed at 5 km using local model and nearest stations. mbs.              3
 ACTION:UPD 10-11-08 10:44 OP:alk  STATUS:               ID:20040502192453 L   I
 2004-05-02-1924-28S.KMY___003                                                 6
 2004-05-02-1924-17S.ODD___003                                                 6
 2004-05-02-1924-24S.BLS___003                                                 6
 2004-05-02-1924-28S.RND___001                                                 6
 2004-05-02-1925-03S.SNART_003                                                 6
                            3 MM                                        BER    2
 felt aakrafjorden near markhus                                                3
 info  from haugesund avis, jon aadland 93 24 56 45                            3
 2004-05-02-1924-25S.WNN___003                                                 6
 2004-05-02-1925-40S.MOL___006                                                 6
 2004-05-02-1924-56S.SUE___006                                                 6
 2004-05-02-1923-32S.KONO__003                                                 6
 2004 0502 1924 52.7 L  59.644   6.619       NAO  5 0.6                 2.0LNAO1
                 2.5     0.1     0.2   -1.0                                    5
     535  SOUTHERN NORWAY                                                      3
 STAT SP IPHASW D HRMM SECON CODA AMPLIT PERI AZIMU VELO AIN AR TRES W  DIS CAZ7
 ODD1 SZ IP   9 D 1924 56.95   46                        106   -0.27 0 20.5  83 
 ODD1 SZ ES       1925  0.04                             9.2    0.5610 20.5  83 
 ODD1 SZ  AML     1925  0.25        87.1 0.28                          20.5  83 
 BLS5 SZ IP     C 1925  3.31   57                         96    0.9110 53.1 168 
 BLS5 SZ ES       1925  9.18                              96    0.4010 53.1 168 
 BLS5 SZ  AML     1925 10.01        40.0 0.32                          53.1 168 
 EGD  SZ EP       1925  5.14   50                         94   -0.2710 71.8 307 
 EGD  SZ ES       1925 13.55                              94   -0.4610 71.8 307 
 EGD  SZ  AML     1925 14.60         5.8 0.10                          71.8 307 
 RUND SZ EP       1925  6.05                              94   -0.1610 76.8 320 
 RUND SZ ES       1925 15.21                              94   -0.1910 76.8 320 
 RUND SZ  AML     1925 17.49        29.7 0.24                          76.8 320 
 ASK  SZ EP       1925  7.98   55                         93   -0.1710 88.8 319 
 ASK  SZ ES       1925 18.16                              93   -0.6110 88.8 319 
 ASK  SZ  AML     1925 19.63         5.5 0.23                          88.8 319 
 KMY  SZ IP     C 1925  8.54   65                         93   -0.7610 96.0 218 
 KMY  SZ ES       1925 19.23                              93   -1.5310 96.0 218 
 KMY  SZ  AML     1925 20.51        11.4 0.20                          96.0 218 
 SUE  SZ EP       1925 18.38   42                         50    0.5110  154 328 
 SUE  SZ ES       1925 35.75                              50    0.0610  154 328 
 SUE  SZ  AML     1925 37.90         9.3 0.13                           154 328 
 SNARTSZ ES       1925 41.76                              50    0.2410  181 162 
 KONO BZ EP       1925 23.59  182                         50    1.3410  189  97 
 KONO BZ ES       1925 46.37                              50    3.0710  189  97 
 NAO  SZ  Pn      1925 33.80                              50    1.1610  273  66 
 NAO  SZ  Lg      1926 08.20                              47   -1.3610  273  66 
 NBO  SZ  Pn      1925 34.30                              50    0.9310  279  61 
 NBO  SZ  Lg      1926 10.40                              50   -0.8810  279  61 
 NB2  SZ  Pn      1925 36.32                              50    0.1410  301  63 
 NB2  SZ  Pg      1925 40.77                              91   -1.5710  301  63 
 NB2  SZ  Lg      1926 16.57                               0   -0.8210  301  63 
 NC6  SZ  Pn      1925 36.85                              50    0.5210  302  69 
 NC6  SZ  Pg      1925 41.25                              91   -1.3410  302  69 
 NC6  SZ  Lg      1926 16.12                              62   -1.7010  302  69 
 MOL  SZ ES       1926 12.31                              50    3.6610  307  12 
 HFS  SZ  Pn      1925 50.67                  265.2  9.5  50 -3 0.3410  415  83 
 HFS  SZ  Sn      1926 33.05                  260.7  3.4  50 -8 0.8910  415  83 
 HFS  SZ  Lg      1926 46.79                  270.1  3.9  59  1-2.3510  415  83 
                                                                                
 2004  5 4 1101  3.8 L  57.359   9.589  0.1  BER 10 0.5 1.8LBER 2.0CBER 2.6LNAO1
 GAP=252        2.42      15.5    19.1 20.3 -0.2094E+02  0.3270E+03  0.4756E+01E
 ACTION:UP  10-11-08 10:44 OP:alk  STATUS:               ID:20040504110103 L   I
 2004-05-04-1101-46S.MOL___006                                                 6
 2004-05-04-1101-11S.ODD___003                                                 6
 2004-05-04-1101-20S.WNN___003                                                 6
 2004-05-04-1101-10S.BLS___003                                                 6
 2004-05-04-1059-58S.KONO__003                                                 6
 2004-05-04-1100-51S.SNART_003                                                 6
 2004 0504 1101 04.4 L  57.391   9.822  7.3  NAO  4 1.2                 2.6LNAO1
                 2.6     0.1     0.2   24.5                                    5
     542  DENMARK                                                              3
 STAT SP IPHASW D HRMM SECON CODA AMPLIT PERI AZIMU VELO AIN AR TRES W  DIS CAZ7
 SNARTSZ EP       11 1 31.20   74                         50   -0.2310  179 309 
 SNARTSZ ES       11 1 51.74                              50   -0.1310  179 309 
 SNARTSZ  AML     11 1 55.50        23.5 0.21                           179 309 
 KONO BZ EP       11 1 40.47                              50   -0.4910  255   0 
 BLS5 SZ EP       11 1 46.19  108                         50    0.3810  294 323 
 BLS5 SZ  AML     11 2 25.50         6.2 0.25                           294 323 
 ODD1 SZ EP       11 1 49.45                              50   -1.1310  332 330 
 HFS  SZ  Pn      1101 58.07                  220.8  8.7  50  1 0.3710  390  36 
 HFS  SZ  Pg      1102 05.03                  217.7  7.1  90 -1-1.6610  390  36 
 HFS  SZ  Lg      1102 51.47                  217.8  3.8   0 -1-0.6410  390  36 
 EGD  SZ EP       11 1 59.85                              50   -0.4110  411 324 
 EGD  SZ ES       11 2 41.92                              50   -0.1310  411 324 
 ASK  SZ EP       11 2  2.06                              49   -0.6210  430 326 
 ASK  SZ ES       11 2 46.78                              49    0.5310  430 326 
 MOL  SZ EP       11 2 25.16                              49    2.9010  592 350 
 FIA0 SZ  Pn      1103 18.07                  247.9  9.5  50 -2-0.0610 1038  57 
 FIA0 SZ  Lg      1105 52.87                  247.6  3.6  50 -3 0.8410 1038  57 
 ARA0 SZ  P       1104 18.27                  212.1  8.2  47 -5 1.40 6 1562  23 
                                                                                
 2004  5 6 2018 43.2 L  59.817   5.377  0.0  BER 10 0.4 0.9LBER 1.1CBER        1
 GAP=160        1.13       1.8     6.0  4.4  0.4317E+01  0.1556E+01 -0.1852E+01E
 ACTION:UP  10-11-08 10:44 OP:alk  STATUS:               ID:20040506201843 L   I
 2004-05-06-2018-14S.RND___001                                                 6
 2004-05-06-2018-10S.WNN___003                                                 6
 2004-05-06-2017-59S.FOO___003                                                 6
 2004-05-06-2017-59S.HYA___003                                                 6
 2004-05-06-2017-59S.KMY___003                                                 6
 2004-05-06-2017-59S.ODD___003                                                 6
 2004-05-06-2017-59S.SUE___006                                                 6
 2004-05-06-2017-59S.BLS___003                                                 6
 STAT SP IPHASW D HRMM SECON CODA AMPLIT PERI AZIMU VELO AIN AR TRES W  DIS CAZ7
 EGD  SZ IP     C 2018 51.35   42                         90   -0.1310 51.2 350 
 EGD  SZ ES       2018 57.45                              90   -0.1410 51.2 350 
 EGD  SZ  AML     2018 57.73         4.9 0.16                          51.2 350 
 BER  SZ EP       2018 53.28                              90   -0.1310 63.2 358 
 BER  SZ ES       2019  0.62                              90   -0.3310 63.2 358 
 BER  SZ  AML     2019  1.17         2.9 0.16                          63.2 358 
 RUND SZ EP       2018 53.94   56                         90    0.0110 66.4 360 
 RUND SZ ES       2019  2.13                              90    0.2710 66.4 360 
 RUND SZ  AML     2019  6.85        29.4 0.36                          66.4 360 
 KMY  SZ EP       2018 54.36                              90    0.0210 68.9 186 
 KMY  SZ ES       2019  2.77                              90    0.2010 68.9 186 
 KMY  SZ  AML     2019  5.44        13.3 0.12                          68.9 186 
 ODD1 SZ EP       2018 54.06                              91   -0.5810 70.8  81 
 ODD1 SZ ES       2019  3.04                              91   -0.0510 70.8  81 
 ASK  SZ EP       2018 55.16   42                         90   -0.1310 74.9 352 
 ASK  SZ ES       2019  4.02                              90   -0.2110 74.9 352 
 ASK  SZ  AML     2019  6.30         4.8 0.13                          74.9 352 
 BLS5 SZ EP       2018 55.16   49                         90   -0.1710 75.1 125 
 BLS5 SZ ES       2019  4.36                              90    0.0710 75.1 125 
 SUE  SZ EP       2019  5.41   53                         70   -0.6910  142 346 
 SUE  SZ ES       2019 22.53                              70   -0.5010  142 346 
 HYA  SZ EP       2019  8.30                              50    0.1910  157  16 
 HYA  SZ ES       2019 27.49                              50    0.9610  157  16 
 FOO  SZ EP       2019 13.76   65                         50    0.3610  199 355 
 FOO  SZ ES       2019 36.69                              50    0.9510  199 355 
                                                                                
 2004  611 1039  4.2 L  59.291   5.689 10.0  BER 10 0.8 2.0LBER 1.2CBER        1
 GAP=109        2.27       3.8     9.0  6.3  0.5227E+01 -0.1003E+02 -0.3236E+01E
 ACTION:UP  10-11-08 10:45 OP:alk  STATUS:               ID:20040611103904 L   I
 2004-06-11-1038-42S.WNN___003                                                 6
 2004-06-11-1038-28S.KMY___003                                                 6
 2004-06-11-1038-44S.RND___001                                                 6
 2004-06-11-1038-31S.BLS___003                                                 6
 2004-06-11-1038-45S.SNART_003                                                 6
 2004-06-11-1039-22S.HYA___003                                                 6
 2004-06-11-1038-48S.ODD___003                                                 6
 2004-06-11-1039-19S.SUE___006                                                 6
 STAT SP IPHASW D HRMM SECON CODA AMPLIT PERI AZIMU VELO AIN AR TRES W  DIS CAZ7
 KMY  SZ EP       1039  8.23   57                        110   -0.6610 27.4 249 
 KMY  SZ ES       1039 12.19                             110   -0.1810 27.4 249 
 KMY  SZ  AML     1039 15.00       120.1 0.56                          27.4 249 
 BLS5 SZ IP     C 1039 11.90   57                        103    0.1010 46.0  71 
 BLS5 SZ ES       1039 17.98                             103    0.5510 46.0  71 
 BLS5 SZ  AML     1039 19.08        57.1 0.48                          46.0  71 
 ODD1 SZ EP       1039 16.94   40                         70   -1.2410 87.0  37 
 ODD1 SZ ES       1039 26.96                              70   -1.5810 87.0  37 
 EGD  SZ EP       1039 21.20   52                         70   -0.7510  112 347 
 EGD  SZ ES       1039 34.36                              70   -0.7410  112 347 
 EGD  SZ ESg      1039 36.96                              95    1.1810  112 347 
 BER  SZ EP       1039 24.23   52                         70    0.5910  123 351 
 BER  SZ ES       1039 39.04                              70    1.0010  123 351 
 BER  SZ  AML     1039 40.05       174.0 0.35                           123 351 
 RUND SZ EP       1039 24.39                              70    0.2710  126 352 
 RUND SZ ES       1039 38.64                              70   -0.2410  126 352 
 RUND SZ ESg      1039 40.99                              95    1.2410  126 352 
 ASK  SZ EP       1039 24.95   57                         50   -0.5010  136 348 
 ASK  SZ ES       1039 40.74                              50   -0.4410  136 348 
 ASK  SZ  AML     1039 42.83       177.6 0.36                           136 348 
 SNARTSZ EP       1039 25.62   58                         50   -0.1110  138 140 
 SNARTSZ ES       1039 42.27                              50    0.6010  138 140 
 SUE  SZ EP       1039 34.73                              50    0.8710  203 346 
 SUE  SN ES       1039 56.19                              50    0.3710  203 346 
 SUE  SN ESg      1039 59.89                              93   -1.4310  203 346 
 SUE  SZ  AML     1040  0.55         8.6 0.30                           203 346 
 HYA  SZ EP       1039 35.86   69                         50    1.1110  211   7 
 HYA  SZ  AML     1040  5.23        12.9 0.53                           211   7 
                                                                                
 2004  615 1002 26.6 L  59.317   5.668  0.0  BER 11 1.1 2.0LBER 1.2CBER        1
 GAP=103        2.83       5.6     9.6 10.4 -0.9896E+00  0.3236E+01 -0.4122E+01E
 ACTION:UP  10-11-08 10:45 OP:alk  STATUS:               ID:20040615100226 L   I
 2004-06-15-1002-04S.WNN___003                                                 6
 2004-06-15-0954-31S.KONO__003                                                 6
 2004-06-15-1002-46S.HYA___003                                                 6
 2004-06-15-1001-50S.KMY___003                                                 6
 2004-06-15-1002-10S.ODD___003                                                 6
 2004-06-15-1002-06S.RND___001                                                 6
 2004-06-15-1002-41S.SUE___006                                                 6
 2004-06-15-1001-54S.BLS___003                                                 6
 2004-06-15-1004-12S.SNART_003                                                 6
 STAT SP IPHASW D HRMM SECON CODA AMPLIT PERI AZIMU VELO AIN AR TRES W  DIS CAZ7
 KMY  SZ EP       10 2 30.41   42                         90   -0.6410 27.5 243 
 KMY  SZ ES       10 2 34.33                              90    0.0010 27.5 243 
 KMY  SZ  AML     10 2 37.24        83.8 0.67                          27.5 243 
 BLS5 SZ EP       10 2 34.87   74                         91    0.7810 46.3  75 
 BLS5 SZ ES       10 2 40.50                              91    0.8710 46.3  75 
 BLS5 SZ  AML     10 2 42.01        42.4 0.40                          46.3  75 
 ODD1 SZ EP       10 2 40.24   42                         90   -0.1710 85.5  39 
 ODD1 SZ ES       10 2 49.19                              90   -1.4410 85.5  39 
 EGD  SZ EP       10 2 43.98   48                         90   -0.2410  109 347 
 EGD  SZ ES       10 2 56.44                              90   -0.8110  109 347 
 EGD  SZ  AML     10 3  0.13       151.5 0.45                           109 347 
 BER  SZ ES       10 3  1.72                              90    1.3210  120 351 
 BER  SZ  AML     10 3  2.55       151.6 0.27                           120 351 
 RUND SZ EP       10 2 47.01   44                         90    0.5010  123 352 
 RUND SZ ESg      10 3  2.76                              90    1.5210  123 352 
 RUND SZ  AML     10 3  3.62        57.5 0.25                           123 352 
 ASK  SZ EP       10 2 47.08                              90   -0.9310  133 349 
 ASK  SZ ES       10 3  2.37                              90   -1.4710  133 349 
 SNARTSZ EP   9   10 4 52.58   58                         70   123.3 0  141 140 
 SNARTSZ ES       10 5  9.43                                    0.0910  141 140 
 SNARTSZ  AML     10 5 11.51        20.6 0.34                           141 140 
 SUE  SZ EP       10 2 56.87                              50   -0.0710  200 346 
 SUE  SZ ES       10 3 18.04                              50   -1.3410  200 346 
 HYA  SZ EP       10 2 59.76   74                         50    1.8710  208   8 
 HYA  SZ ES       10 3 22.29                              50    1.2610  208   8 
 HYA  SZ  AML     10 3 27.85         9.0 0.55                           208   8 
 KONO BZ EP       10 3  0.72                              50    0.6010  226  79 
 KONO BZ ESg      10 3 28.36                              90   -1.6210  226  79 
 KONO BZ  AML     10 3 30.19        54.5 0.37                           226  79 
                                                                                
 2004  629 0125 32.9 L* 59.558   7.707  8.0F BER 23 0.8 3.1LBER 2.7CBER 3.3LNAO1
