 2004  928 1153 40.5 L*                      BER        3.0WBER                1
 SPEC AVERAGE  MO 13.5 ST  3.3 OM  2.3 f0 3.58 R0.3657 AL 1.50 WI 28.0 MW  3.0 3
 SPEC SD       MO  0.2 ST0.795 OM  0.5 f00.708 R0.0731 AL      WI      MW  0.2 3
 GAP=270        3.46       9.2    11.1  9.2  0.1962E+02  0.1701E+02  0.3993E+02E
 SPEC DOMBS  Z MO 14.1 ST  4.1 OM  2.2 f0 2.49 R0.5060 AL 1.28 WI 25.0 MW  3.3 3
 SPEC DOMBS  Z T115558 K 0.000 GD  519 VS 3.60 DE 3.00 Q0440.0 QA 0.70 VS 3.60 3
 SPEC MOL S  Z MO 13.7 ST  2.2 OM  1.8 f0 2.68 R0.4701 AL 1.76 WI 28.6 MW  3.1 3
 SPEC MOL S  Z T115610 K 0.000 GD  563 VS 3.60 DE 3.00 Q0440.0 QA 0.70 VS 3.60 3
 SPEC HYA S  Z MO 13.6 ST  2.4 OM  1.8 f0 3.07 R0.4104 AL 1.26 WI 35.9 MW  3.0 3
 SPEC HYA S  Z T115528 K 0.000 GD  410 VS 3.60 DE 3.00 Q0440.0 QA 0.70 VS 3.60 3
 SPEC STAVS  Z MO 13.1 ST  3.9 OM  1.7 f0 5.11 R0.2466 AL 1.17 WI 16.2 MW  2.7 3
 SPEC STAVS  Z T115424 K 0.000 GD  180 VS 3.60 DE 3.00 Q0440.0 QA 0.70 VS 3.60 3
 SPEC BLS5S  Z MO 13.4 ST  4.0 OM  1.9 f0 4.15 R0.3036 AL 1.86 WI 22.1 MW  2.9 3
 SPEC BLS5S  Z T115433 K 0.000 GD  216 VS 3.60 DE 3.00 Q0440.0 QA 0.70 VS 3.60 3
 SPEC ODD1S  Z MO 13.6 ST  4.5 OM  2.0 f0 3.72 R0.3387 AL 1.64 WI 24.2 MW  3.0 3
 SPEC ODD1S  Z T115448 K 0.000 GD  269 VS 3.60 DE 3.00 Q0440.0 QA 0.70 VS 3.60 3
 SPEC KMY S  Z MO 13.4 ST  3.1 OM  1.9 f0 3.82 R0.3298 AL 1.22 WI 29.7 MW  2.9 3
 SPEC KMY S  Z T115432 K 0.000 GD  219 VS 3.60 DE 3.00 Q0440.0 QA 0.70 VS 3.60 3
 SPEC ASK S  Z MO 13.3 ST  2.2 OM  1.6 f0 3.65 R0.3452 AL 1.60 WI 38.9 MW  2.8 3
 SPEC ASK S  Z T115459 K 0.000 GD  349 VS 3.60 DE 3.00 Q0440.0 QA 0.70 VS 3.60 3
 SPEC EGD S  Z MO 13.5 ST  3.1 OM  1.8 f0 3.61 R0.3490 AL 1.93 WI 39.6 MW  2.9 3
 SPEC EGD S  Z T115454 K 0.000 GD  327 VS 3.60 DE 3.00 Q0440.0 QA 0.70 VS 3.60 3
 SPEC BER S  Z MO 13.6 ST  3.8 OM  1.9 f0 3.53 R0.3569 AL 1.27 WI 19.5 MW  3.0 3
 SPEC BER S  Z T1155 9 K 0.000 GD  336 VS 3.60 DE 3.00 Q0440.0 QA 0.70 VS 3.60 3
 ACTION:UPD 10-11-08 10:45 OP:alk  STATUS:               ID:20040928115340 L   I
 2004-09-28-1153-44S.WNN___003                                                 6
 2004-09-28-1152-59S.KMY___003                                                 6
 2004-09-28-1152-59S.ODD___003                                                 6
 2004-09-28-1152-59S.BLS___003                                                 6
 2004-09-28-1152-59S.STA___003                                                 6
 2004-09-28-1152-59S.FOO___003                                                 6
 2004-09-28-1152-59S.HYA___003                                                 6
 2004-09-28-1152-59S.SUE___006                                                 6
 2004-09-28-1149-23S.KONO__003                                                 6
                            3 MM                                        BER    2
 an email from Sr-Audnedal west of Mandal, no quesionnaires sent, alk         3
 2004-09-28-1154-17S.MOL___006                                                 6
 2004-09-28-1153-47S.RND___001                                                 6
 2004-09-28-1154-23S.DOM___001                                                 6
 2004 0928 1153 40.6 L  57.571   7.518  8.4  NAO  5 2.5                 3.0LNAO1
                 5.1     0.1     0.1   27.0                                    5
     534  NORTH SEA                                                            3
 2004-09-28-1153-24X.OSGS__003                                                 6
 2004-09-28-1153-27X.ARNS__003                                                 6
 2004-09-28-1154-01X.SOTS__003                                                 6
 STAT SP IPHASW D HRMM SECON CODA AMPLIT PERI AZIMU VELO AIN AR TRES W  DIS CAZ7
 STAV SZ EP       1154  6.16   93                         55   -0.5410  180 332 
 STAV SZ EPg      1154  7.67                              91   -0.7110  180 332 
 STAV SZ ESg      1154 27.87                              91   -1.1710  180 332 
 BLS5 SZ EP       1154 12.18  123                         55    0.8910  216 349 
 BLS5 SZ ESg      1154 39.02                              91    0.3210  216 349 
 BLS5 SZ  AML     1154 39.62       331.5 0.26                           216 349 
 KMY  SZ EP       1154 10.98  136                         55   -0.5910  219 330 
 KMY  SZ EPg      1154 11.89                              91   -2.4210  219 330 
 KMY  SZ ES       1154 33.64                              55   -0.9510  219 330 
 ODD1 SZ EP       1154 17.19  149                         55   -0.6010  269 354 
 ODD1 SN ES       1154 45.12                              55   -0.2910  269 354 
 ODD1 SZ ESg      1154 51.29                              91   -1.1910  269 354 
 ODD1 SZ  AML     1154 51.80       168.9 0.28                           269 354 
 KONO BZ EP   9   1155 24.52                              55   65.80 0  276  30 
 KONO BN ESg      1155 59.21                                   -1.1010  276  30 
 OSGS SZ EP       1154 23.57   92                         55    0.1910  314 342 
 OSGS SN ES       1154 54.04                              55   -1.1110  314 342 
 EGD  SZ EP       1154 24.57  173                         55   -0.3510  327 341 
 EGD  SZ ES       1154 57.96                              55    0.1310  327 341 
 EGD  SZ ESg      1155  8.04                              91    0.3310  327 341 
 BER  SZ EP       1154 26.33                              55    0.1910  336 343 
 BER  SZ ESg      1155 10.59                              91    0.3010  336 343 
 SOTS SZ EP       1154 26.25  112                         55   -0.0110  337 340 
 SOTS SZ ES       1154 58.83                              55   -1.3210  337 340 
 RUND SZ EP       1154 26.47                              55   -0.0410  339 343 
 RUND SZ ES       1155  0.52                              55   -0.0710  339 343 
 ARNS SZ EP       1154 27.07  137                         55    0.4010  341 344 
 ARNS SZ ES       1155  0.63                              55   -0.2410  341 344 
 ASK  SZ EP       1154 27.20  195                         55   -0.5510  349 342 
 ASK  SZ ES       1155  2.60                              55   -0.1610  349 342 
 ASK  SZ ESg      1155 13.57                              91   -0.1410  349 342 
 HYA  SZ EP       1154 36.90  166                         55    1.5710  410 353 
 HYA  SZ ESg      1155 31.71                              91    1.9210  410 353 
 HYA  SZ  AML     1155 46.26        36.5 0.40                           410 353 
 SUE  SZ EP       1154 36.06  145                         53   -0.1410  418 342 
 SUE  SZ ES       1155 15.77                              53   -1.6910  418 342 
 SUE  SN ESg      1155 32.96                              91    1.2710  418 342 
 SUE  SZ  AML     1155 37.68        32.7 0.34                           418 342 
 NC6  SZ  Pn      1154 38.65                              55    0.1510  436  33 
 NC6  SZ  Sn      1155 23.90                              55    2.4410  436  33 
 NC6  SZ  Lg      1155 40.60                              50   -0.8610  436  33 
 NB2  SZ  Pn      1154 41.15                              55    0.1810  455  29 
 NB2  SZ  Lg      1155 43.90                               0   -2.9810  455  29 
 FOO  SZ EP       1154 42.42                              53   -0.1710  470 346 
 FOO  SZ ESg      1155 46.87                              90    1.2910  470 346 
 FOO  SZ  AML     1155 54.00        35.1 0.34                           470 346 
 HFS  SZ  Pn      1154 44.17                  233.9  7.9  55  0 0.6110  476  50 
 HFS  SZ  Sn      1155 31.27                  227.3  4.2  55 -7 1.0110  476  50 
 HFS  SZ  Lg      1155 51.27                  235.4  3.7   0  0-1.5110  476  50 
 DOMB SZ EP       1154 49.84  188                         53    1.2410  519  11 
 DOMB SZ ESg      1155 59.04                              90    0.4710  519  11 
 DOMB SZ  AML     1156  3.64        92.7 0.20                           519  11 
 MOL  SZ EP       1154 56.21                              53    2.3110  563   2 
 MOL  SZ ESg      1156 14.67                              90    4.5010  563   2 
 MOL  SZ  AML     1156 23.51        38.8 0.64                           563   2 
 FIA0 SZ  Sn      1157 54.95                  253.0  5.3  55 -2-1.41 9 1153  60 
 FIA0 SZ  Lg      1159 01.10                  266.2  4.1  47 10 0.50 9 1153  60 
 ARA0 SZ  Lg      1201 03.60                  226.5  3.8   0  4-3.33 6 1607  26 
                                                                                
 2005  211 0209 42.5 L* 59.875   6.145 12.0F BER 18 0.8 2.1LBER 1.9CBER 2.7LNAO1
 2005  211 0209 42.5 L*                      BER        2.3WBER                1
 SPEC AVERAGE  MO 12.5 ST  2.4 OM  1.5 f0 6.94 R0.1985 AL 3.08 WI  9.7 MW  2.3 3
 SPEC SD       MO  0.2 ST  1.6 OM  0.2 f0 1.94 R0.0650 AL      WI      MW  0.2 3
 GAP= 96        3.08       3.2     7.1  0.0 -0.3055E+00 -0.6732E+02 -0.1773E+01E
 SPEC EGD S  Z MO 12.2 ST  1.4 OM  1.2 f0 7.34 R0.1717 AL 2.66 WI  5.4 MW  2.1 3
 SPEC EGD S  Z T 210 0 K 0.000 GD 68.7 VS 3.60 DE 3.00 Q0440.0 QA 0.70 VS 3.60 3
 SPEC BER S  Z MO 12.3 ST  2.9 OM  1.3 f0 8.49 R0.1484 AL 2.37 WI  8.8 MW  2.2 3
 SPEC BER S  Z T 210 0 K 0.000 GD 73.4 VS 3.60 DE 3.00 Q0440.0 QA 0.70 VS 3.60 3
 SPEC SNARS  Z MO 13.1 ST  1.1 OM  1.7 f0 3.55 R0.3549 AL 2.30 WI 12.7 MW  2.7 3
 SPEC SNARS  Z T 21029 K 0.000 GD  158 VS 3.60 DE 3.00 Q0440.0 QA 0.70 VS 3.60 3
 SPEC STAVS  Z MO 12.6 ST0.894 OM  1.4 f0 4.70 R0.2681 AL 1.72 WI  5.9 MW  2.3 3
 SPEC STAVS  Z T 21010 K 0.000 GD  106 VS 3.60 DE 3.00 Q0440.0 QA 0.70 VS 3.60 3
 SPEC DOMBS  Z MO 12.5 ST  3.2 OM  1.0 f0 7.57 R0.1664 AL 2.05 WI 22.1 MW  2.3 3
 SPEC DOMBS  Z T 21059 K 0.000 GD  232 VS 3.60 DE 3.00 Q0440.0 QA 0.70 VS 3.60 3
 SPEC BLS5S  Z MO 12.3 ST0.815 OM  1.4 f0 5.69 R0.2214 AL 3.03 WI  2.7 MW  2.1 3
 SPEC BLS5S  Z T 2 957 K 0.000 GD 54.6 VS 3.60 DE 3.00 Q0440.0 QA 0.70 VS 3.60 3
 SPEC ODD1S  Z MO 12.2 ST  1.3 OM  1.6 f0 6.89 R0.1829 AL 3.68 WI  3.7 MW  2.1 3
 SPEC ODD1S  Z T 2 949 K 0.000 GD 29.8 VS 3.60 DE 3.00 Q0440.0 QA 0.70 VS 3.60 3
 SPEC KMY S  Z MO 12.3 ST  6.2 OM  1.2 f0 11.0 R0.1145 AL 5.89 WI  7.5 MW  2.2 3
 SPEC KMY S  Z T 210 4 K 0.000 GD 91.5 VS 3.60 DE 3.00 Q0440.0 QA 0.70 VS 3.60 3
 SPEC HYA S  Z MO 12.5 ST  2.6 OM  1.2 f0 7.23 R0.1743 AL 3.65 WI 15.4 MW  2.3 3
 SPEC HYA S  Z T 21021 K 0.000 GD  132 VS 3.60 DE 3.00 Q0440.0 QA 0.70 VS 3.60 3
 SPEC FOO S  Z MO 12.7 ST  3.6 OM  1.3 f0 6.91 R0.1823 AL 3.41 WI 12.6 MW  2.4 3
 SPEC FOO S  Z T 21034 K 0.000 GD  171 VS 3.60 DE 3.00 Q0440.0 QA 0.70 VS 3.60 3
 ACTION:UP  10-11-08 14:12 OP:alk  STATUS:               ID:20050211020942 L   I
 depth calculated to 0, fixed to 12km after using local model, alk             3
 2005-02-11-0209-34S.FOO___003                                                 6
 2005-02-11-0209-26S.HYA___003                                                 6
 2005-02-11-0209-15S.KMY___003                                                 6
 2005-02-11-0209-06S.ODD___003                                                 6
 2005-02-11-0209-43S.SUE___006                                                 6
 2005-02-11-0209-12S.BLS___003                                                 6
 2005-02-11-0209-48S.DOM___001                                                 6
 2005-02-11-0209-30S.STA___003                                                 6
 2005-02-11-0209-33S.SNART_003                                                 6
 2005-02-11-0209-17S.BER___003                                                 6
 2005-02-11-0209-12S.WNN___003                                                 6
 2005-02-11-0209-50S.MOL___003                                                 6
 2005-02-11-0210-48S.KONO__003                                                 6
 2005 0211 0209 44.0 L  59.863   6.490  9.3  NAO  4 0.3                 2.7LNAO1
                 5.9     0.6     0.3   27.9                                    5
     535  SOUTHERN NORWAY                                                      3
 STAT SP IPHASW D HRMM SECON CODA AMPLIT PERI AZIMU VELO AIN AR TRES W  DIS CAZ7
 ODD1 SZ IP     D  2 9 46.50   84                        115   -0.8810 27.3  81 
 ODD1 SZ E         2 9 49.61                             115           27.3  81 
 ODD1 SN ESg       2 9 50.39                             115   -0.5810 27.3  81 
 ODD1 SZ  AML      2 9 50.59       356.6 0.26                          27.3  81 
 BLS5 SZ IP     C  2 9 51.83   86                         70    0.5310 53.3 161 
 BLS5 SZ ESg       2 9 58.14                             103    0.2410 53.3 161 
 EGD  SZ EP        2 9 52.75   79   78.8 0.13             70   -0.6910 67.6 311 
 EGD  SZ ES        210  0.69                              70   -0.8310 67.6 311 
 EGD  SZ  AML      210  2.31        78.8 0.13                          67.6 311 
 BER  SZ EP        2 9 54.12  128                         70   -0.0410 72.4 322 
 BER  SZ ES        210  1.88                              70   -0.8910 72.4 322 
 BER  SZ  AML      210  4.53        88.2 0.20                          72.4 322 
 ASK  SZ EP        2 9 55.89   69                         70   -0.3110 85.8 323 
 ASK  SZ ES        210  6.04                              70   -0.2810 85.8 323 
 KMY  SZ IP     C  2 9 56.03   68                         70   -0.9110 90.7 215 
 KMY  SZ EPg       2 9 57.43                              98    0.1410 90.7 215 
 KMY  SZ ES        210  5.86                              70   -1.7510 90.7 215 
 KMY  SN ESg       210  8.92                              98    0.7010 90.7 215 
 STAV SZ IP     C  2 9 58.97                              70   -0.5410  108 194 
 STAV SZ ES        210 10.78                              70   -1.3010  108 194 
 STAV SZ ESg       210 13.84                              96    0.8910  108 194 
 HYA  SZ IP     D  210  5.96  105                         50    1.3610  144   1 
 HYA  SN ESg       210 23.38                              95    0.3610  144   1 
 HYA  SZ  AML      210 25.26        45.5 0.04                           144   1 
 SUE  SZ EP        210  6.86   64                         50    1.2310  152 331 
 SUE  SZ ES        210 23.14                              50    0.4110  152 331 
 SUE  SZ  AML      210 25.48        43.5 0.22                           152 331 
 SNARTSZ EP        210 10.90   97                         50    1.5810  182 160 
 SNARTSZ ES        210 30.26                              50    1.1210  182 160 
 KONO BZ EP   9    212 11.52                              50   120.5 0  196  96 
 KONO BZ ES        212 35.32                                    2.6910  196  96 
 FOO  SZ EP        210 13.78  141                         50    2.0610  201 343 
 FOO  SN ES        210 34.21                              50    0.8910  201 343 
 FOO  SE ESg       210 37.22                              93   -1.8610  201 343 
 FOO  SZ  AML      210 38.06        43.4 0.15                           201 343 
 DOMB SZ EPg       210 28.52                              92   -1.2910  293  32 
 DOMB SZ E         211  2.32                             9.0            293  32 
 NB2  SZ  Pn      0210 26.30                              50    1.2910  308  63 
 NB2  SZ  Pg      0210 30.60                              92   -1.5810  308  63 
 NB2  SZ  Lg      0211 06.72                              47   -1.2510  308  63 
 NC6  SZ  Pn      0210 26.77                              50    1.5910  309  69 
 NC6  SZ  Pg      0210 30.95                              92   -1.5010  309  69 
 NC6  SZ  Lg      0211 06.60                              50   -1.8310  309  69 
 MOL  SZ EP        210 25.74                              50    0.5410  310  13 
 MOL  SN ES        210 59.54                              50    2.7610  310  13 
 HFS  SZ  Pn      0210 40.08                  265.4  8.0  50 -3 0.9010  422  83 
 HFS  SZ  Pg      0210 49.45                  260.2  7.2  92 -8-1.1710  422  83 
 HFS  SZ  Sn      0211 22.68                  267.0  6.0  50 -1 1.5710  422  83 
 HFS  SZ  Lg      0211 37.70                  273.2  3.5  47  4-2.0510  422  83 
 FIA0 SZ  Lg      0214 49.57                  268.8  5.3   0  0 1.62 9 1100  72 
                                                                                
 2005  224 0505 59.0 L  59.918   7.632  0.3  BER 10 0.8 1.2LBER 1.7CBER        1
 GAP=189        2.04       3.9    12.2  7.6 -0.8550E+01 -0.1833E+02 -0.7520E+00E
 2005-02-24-0505-00S.KMY___003                                                 6
 2005-02-24-0504-59S.ODD___003                                                 6
 2005-02-24-0505-00S.BLS___003                                                 6
 2005-02-24-0506-05S.HYA___003                                                 6
 2005-02-24-0506-07S.SNART_003                                                 6
 2005-02-24-0506-18S.FOO___003                                                 6
 2005-02-24-0506-09S.MOL___003                                                 6
 2005-02-24-0505-57S.RND___001                                                 6
 2005-02-24-0505-59S.WNN___003                                                 6
 ACTION:NEW 10-11-08 14:12 OP:alk  STATUS:               ID:20050224050559 L   I
 STAT SP IPHASW D HRMM SECON CODA AMPLIT PERI AZIMU VELO AIN AR TRES W  DIS CAZ7
 ODD1 SZ EP        5 6  6.74  100                         91   -1.3410 56.2 270 
 ODD1 SZ ESg       5 6 14.81                              91    0.0210 56.2 270 
 BLS5 SZ EP        5 6 13.11   52                         91    0.2010 86.2 231 
 BLS5 SZ ESg       5 6 24.38                              91    1.1710 86.2 231 
 BLS5 SZ  AML      5 6 25.09        15.0 0.26                          86.2 231 
 RUND SZ EP        5 6 20.73   60                         70   -0.4210  137 295 
 RUND SZ ES        5 6 38.01                              70    0.4610  137 295 
 RUND SZ  AML      5 6 38.71         7.3 0.13                           137 295 
 EGD  SZ ES        5 6 38.29                              70    0.1810  140 287 
 ASK  SZ ES        5 6 40.51                              70   -0.0910  149 296 
 KMY  SZ EP        5 6 23.06   85                         50   -0.8610  157 241 
 KMY  SZ ES        5 6 42.43                              50    0.0710  157 241 
 KMY  SZ  AML      5 6 43.78         4.4 0.36                           157 241 
 HYA  SZ EP        5 6 23.95                              50   -0.3610  160 331 
 HYA  SZ ES        5 6 43.26                              50    0.2210  160 331 
 HYA  SZ  AML      5 6 48.34         4.7 0.22                           160 331 
 SNARTSZ ES        5 6 46.41                              50   -0.4210  178 188 
 FOO  SZ ES        5 6 58.64                              50   -0.4510  234 324 
 MOL  SZ EP        5 6 43.16   81                         50    2.0210  296 359 
 MOL  SN ESg       5 7 21.57                              90   -0.3810  296 359 
                                                                                
 2005  324 0241 38.3 L  59.464   5.651 13.1  BER 19 0.4 2.4LBER 2.3CBER 2.5LNAO1
