 2005 0728 2029 55.3 L  59.883   5.125       NAO  2 0.7                 2.5LNAO1
                 3.8     0.6     0.3   -1.0                                    5
     535  SOUTHERN NORWAY                                                      3
 STAT SP IPHASW D HRMM SECON CODA AMPLIT PERI AZIMU VELO AIN AR TRES W  DIS CAZ7
 EGD  SZ IP     C 2030  6.32  153                         96   -0.3710 50.9   6 
 BER  SZ IP     C 2030  8.43  161                         94   -0.2810 64.3  10 
 KMY  SZ EP       2030  9.03  137                         93   -0.3510 68.6 175 
 KMY  SZ ES       2030 17.12       385.5 0.12             93   -0.4510 68.6 175 
 KMY  SZ  AML     2030 17.45       385.5 0.12                          68.6 175 
 ASK  SZ EP       2030  9.85  129                         93   -0.4010 74.4   3 
 ASK  SZ ES       2030 18.76                              93   -0.3310 74.4   3 
 ASK  SZ  AML     2030 21.39       222.1 0.26                          74.4   3 
 ODD1 SZ IP     D 2030 10.55  167                         92   -1.2610 84.5  82 
 ODD1 SZ ES       2030 20.10                              92   -1.7110 84.5  82 
 ODD1 SZ  AML     2030 23.49       125.2 0.12                          84.5  82 
 BLS5 SZ IP     D 2030 13.01   55                         92    0.8810 86.6 120 
 BLS5 SZ ES       2030 23.30                              92    0.9410 86.6 120 
 BLS5 SZ  AML     2030 23.38       182.8 0.25                          86.6 120 
 STAV SZ IP     C 2030 14.57  120                         92   -0.0610  103 161 
 STAV SZ ES       2030 26.50                              92   -0.2210  103 161 
 STAV SZ  AML     2030 27.64       208.1 0.19                           103 161 
 SUE  SZ E        2030 19.37                                            140 352 
 SUE  SZ EP       2030 20.19   89                         55    0.4910  140 352 
 SUE  SZ ES       2030 34.84                              55   -0.6910  140 352 
 SUE  SZ  AML     2030 37.61       103.2 0.13                           140 352 
 HYA  SZ EP       2030 22.86  175                         55    0.5210  161  21 
 HYA  SZ EPg      2030 24.07                              91    0.7010  161  21 
 HYA  SN ES       2030 41.22                              55    1.0910  161  21 
 HYA  SZ  AML     2030 46.29        65.6 0.17                           161  21 
 FOO  SZ EP       2030 26.47  147                         55   -0.5310  199 359 
 FOO  SZ EPg      2030 28.63                              91   -0.4210  199 359 
 FOO  SN ES       2030 48.94                              55    0.7010  199 359 
 FOO  SZ  AML     2030 52.71        99.4 0.36                           199 359 
 SNARTSZ EP       2030 27.57   73                         55   -0.0210  203 143 
 SNARTSZ EPg      2030 29.48                              91   -0.2810  203 143 
 SNARTSZ ESg      2030 53.01                              91   -0.0310  203 143 
 SNARTSZ  AML     2030 53.48       259.6 0.28                           203 143 
 KONO BZ EP       2030 34.08                              55    0.4310  252  92 
 KONO BZ EPg      2030 36.96                              91   -0.1910  252  92 
 KONO BZ ES       2031  2.16                              55    2.3610  252  92 
 KONO BZ ESg      2031  6.37                              91    0.4810  252  92 
 DOMB SZ EP       2030 43.57                              55    0.0210  331  39 
 DOMB SZ ESg      2031 27.02                              90    0.1610  331  39 
 DOMB SZ  AML     2031 30.19        50.1 0.35                           331  39 
 MOL  SZ EP   9   2030 49.73                              55    6.00 0  333  22 
 MOL  SN ES       2031 24.78                                    1.4310  333  22 
 MOL  SZ  AML     2031 37.82        17.8 0.28                           333  22 
 NB2  SZ  Pn      2030 47.25                  248.6  9.1  55 -1-0.0810  362  65 
 NB2  SZ  Pg      2030 53.37                  250.1  6.9  90  0-0.4210  362  65 
 NB2  SZ  Lg      2031 36.35                               0   -2.4010  362  65 
 HFS  SZ  Pn      2031 01.35                  260.7  9.7  55 -8-0.5410  479  82 
 HFS  SZ  Pg      2031 14.48                  259.5  7.5  90 -9 2.8910  479  82 
 HFS  SZ  Sn      2031 49.07                              55    0.1210  479  82 
 HFS  SZ  Lg      2032 10.68                  273.9  3.9  15  4-0.7410  479  82 
                                                                                
 2005  911 0732  0.4 L  59.231   6.223 15.0  BER 10 1.2 1.7LBER 1.6CBER        1
 GAP=118        3.25       4.7    12.8 16.0 -0.6877E+01  0.3508E+02 -0.2064E+02E
 ACTION:UP  10-11-08 14:13 OP:alk  STATUS:               ID:20050911073200 L   I
 2005-09-11-0732-33S.FOO___003                                                 6
 2005-09-11-0731-28S.KMY___003                                                 6
 2005-09-11-0732-53S.MOL___003                                                 6
 2005-09-11-0731-31S.ODD___003                                                 6
 2005-09-11-0733-22S.RND___001                                                 6
 2005-09-11-0732-19S.SUE___006                                                 6
 2005-09-11-0731-43S.WNN___003                                                 6
 2005-09-11-0731-25S.BLS___003                                                 6
 2005-09-11-0731-32S.STA___003                                                 6
 2005-09-11-0731-39S.SNART_003                                                 6
 STAT SP IPHASW D HRMM SECON CODA AMPLIT PERI AZIMU VELO AIN AR TRES W  DIS CAZ7
 BLS5 SZ EP        732  5.04   73                         91   -0.1110 25.1  32 
 BLS5 SZ ESg       732  8.22                              91   -0.4110 25.1  32 
 BLS5 SZ  AML      732  8.54       153.3 0.10                          25.1  32 
 STAV SZ IP     C  732  7.62                              90   -0.2810 44.5 222 
 STAV SZ ES        732 13.10                              90   -0.3210 44.5 222 
 KMY  SZ EP        732  9.00                              90   -0.6510 56.2 267 
 KMY  SZ ES        732 15.54                              90   -0.9210 56.2 267 
 KMY  SZ  AML      732 15.98        30.3 0.12                          56.2 267 
 ODD1 SZ IP     C  732 11.52   63                         91   -1.6210 79.1  17 
 ODD1 SZ ES        732 20.90                              91   -1.6410 79.1  17 
 SNARTSZ IP     C  732 18.63   79                         90    0.1310  115 150 
 SNARTSZ ES        732 32.10                              90    0.2410  115 150 
 SNARTSZ  AML      732 32.58        17.9 0.22                           115 150 
 EGD  SZ EP        732 20.62   65                         90    0.2510  129 335 
 EGD  SZ ESg       732 35.39                              90   -0.1510  129 335 
 BER  SZ ESg       732 37.89                              90   -0.0310  138 339 
 BER  SZ  AML      732 39.57        27.6 0.28                           138 339 
 RUND SZ ES   9    734  5.74                              90   88.04 0  140 340 
 ASK  SZ EP        732 23.63   72                         70    0.5010  151 338 
 ASK  SZ ES        732 41.26                              70    1.3310  151 338 
 ASK  SZ  AML      732 43.12        26.5 0.18                           151 338 
 SUE  SZ ES        732 54.53                              50   -0.1210  219 339 
 SUE  SZ  IAML     733  0.35        10.1 0.16                           219 339 
 FOO  SZ EP        732 42.23                              50    4.1110  272 347 
 FOO  SZ ESg       733 12.90                              90   -0.2910  272 347 
 FOO  SZ  AML      733 15.33         3.9 0.15                           272 347 
                                                                                
 2005 1028 0722 22.8 L  57.511   7.140 15.0F BER 20 0.7 3.1LBER 2.8CBER 3.1LNAO1
 2005 1028 0722 22.8 L                       BER        3.1WBER                1
 SPEC AVERAGE  MO 13.8 ST 24.1 OM  2.5 f0 5.62 R0.2281 AL 2.79 WI 19.3 MW  3.1 3
 SPEC SD       MO  0.3 ST  9.0 OM  0.5 f00.682 R0.0311 AL      WI      MW  0.2 3
 GAP=270        2.96       7.1    11.2  0.0  0.1889E+02 -0.9523E+10  0.1380E+11E
 SPEC HYA S  Z MO 13.7 ST 21.4 OM  1.9 f0 5.88 R0.2143 AL 2.77 WI 21.3 MW  3.1 3
 SPEC HYA S  Z T 724 9 K 0.000 GD  411 VS 3.60 DE 3.00 Q0440.0 QA 0.70 VS 3.60 3
 SPEC MOL S  Z MO 14.1 ST 29.6 OM  2.2 f0 4.68 R0.2692 AL 2.56 WI 20.5 MW  3.4 3
 SPEC MOL S  Z T 72453 K 0.000 GD  564 VS 3.60 DE 3.00 Q0440.0 QA 0.70 VS 3.60 3
 SPEC SNARS  Z MO 14.0 ST 48.4 OM  2.9 f0 5.87 R0.2147 AL 2.53 WI 14.9 MW  3.3 3
 SPEC SNARS  Z T 72245 K 0.000 GD 93.5 VS 3.60 DE 3.00 Q0440.0 QA 0.70 VS 3.60 3
 SPEC STAVS  Z MO 13.5 ST 15.0 OM  2.1 f0 5.89 R0.2139 AL 2.11 WI 14.5 MW  3.0 3
 SPEC STAVS  Z T 723 3 K 0.000 GD  180 VS 3.60 DE 3.00 Q0440.0 QA 0.70 VS 3.60 3
 SPEC DOMBS  Z MO 14.4 ST 37.4 OM  2.5 f0 4.13 R0.3051 AL 2.93 WI 24.4 MW  3.5 3
 SPEC DOMBS  Z T 72441 K 0.000 GD  520 VS 3.60 DE 3.00 Q0440.0 QA 0.70 VS 3.60 3
 SPEC OSL S  Z MO 13.7 ST 18.8 OM  2.0 f0 5.55 R0.2270 AL 2.25 WI  6.2 MW  3.1 3
 SPEC OSL S  Z T 72354 K 0.000 GD  341 VS 3.60 DE 3.00 Q0440.0 QA 0.70 VS 3.60 3
 SPEC BLS5S  Z MO 13.7 ST 23.5 OM  2.2 f0 5.96 R0.2114 AL 3.19 WI 20.9 MW  3.1 3
 SPEC BLS5S  Z T 72315 K 0.000 GD  217 VS 3.60 DE 3.00 Q0440.0 QA 0.70 VS 3.60 3
 SPEC SUE S  Z MO 13.8 ST 24.6 OM  2.0 f0 5.67 R0.2222 AL 3.25 WI 14.5 MW  3.1 3
 SPEC SUE S  Z T 72415 K 0.000 GD  418 VS 3.60 DE 3.00 Q0440.0 QA 0.70 VS 3.60 3
 SPEC RUNDS  Z MO 13.9 ST 18.3 OM  2.2 f0 4.73 R0.2664 AL 2.55 WI 28.3 MW  3.2 3
 SPEC RUNDS  Z T 72339 K 0.000 GD  339 VS 3.60 DE 3.00 Q0440.0 QA 0.70 VS 3.60 3
 SPEC ODD1S  Z MO 13.8 ST 33.1 OM  2.2 f0 6.22 R0.2026 AL 2.92 WI 19.4 MW  3.1 3
 SPEC ODD1S  Z T 72326 K 0.000 GD  269 VS 3.60 DE 3.00 Q0440.0 QA 0.70 VS 3.60 3
 SPEC KMY S  Z MO 13.6 ST 19.3 OM  2.1 f0 6.01 R0.2097 AL 2.51 WI 17.9 MW  3.0 3
 SPEC KMY S  Z T 72313 K 0.000 GD  219 VS 3.60 DE 3.00 Q0440.0 QA 0.70 VS 3.60 3
 SPEC FOO S  Z MO 13.6 ST 19.5 OM  1.8 f0 5.89 R0.2139 AL 2.17 WI 23.7 MW  3.0 3
 SPEC FOO S  Z T 72428 K 0.000 GD  470 VS 3.60 DE 3.00 Q0440.0 QA 0.70 VS 3.60 3
 SPEC ASK S  Z MO 13.9 ST 20.1 OM  2.2 f0 4.83 R0.2609 AL 2.74 WI 25.4 MW  3.2 3
 SPEC ASK S  Z T 72340 K 0.000 GD  349 VS 3.60 DE 3.00 Q0440.0 QA 0.70 VS 3.60 3
 SPEC EGD S  Z MO 13.5 ST 16.1 OM  1.8 f0 6.23 R0.2022 AL 3.60 WI 23.1 MW  2.9 3
 SPEC EGD S  Z T 72338 K 0.000 GD  327 VS 3.60 DE 3.00 Q0440.0 QA 0.70 VS 3.60 3
 SPEC BER S  Z MO 13.4 ST 16.3 OM  1.7 f0 6.70 R0.1881 AL 3.78 WI 13.8 MW  2.9 3
 SPEC BER S  Z T 72342 K 0.000 GD  336 VS 3.60 DE 3.00 Q0440.0 QA 0.70 VS 3.60 3
 rmsdep indicates depth 8km og deeper than 19km. depth fixed to 15km           3
 Timing error on KONO??????                                                    3
 ACTION:UPD 10-11-08 14:13 OP:alk  STATUS:               ID:20051028072223 L   I
 Nearest stations indicate ca 10 km depth. Fixed. mbs.                         3
 2005-10-28-0722-26S.WNN___003                                                 6
 2005-10-28-0722-46S.FOO___003                                                 6
 2005-10-28-0722-13S.KMY___003                                                 6
 2005-10-28-0722-21S.ODD___003                                                 6
 2005-10-28-0722-29S.RND___001                                                 6
 2005-10-28-0722-39S.SUE___006                                                 6
 2005-10-28-0722-15S.BLS___003                                                 6
 2005-10-28-0721-21S.KONO__003                                                 6
 2005-10-28-0722-40S.OSL___001                                                 6
 2005-10-28-0722-52S.DOM___001                                                 6
 2005-10-28-0722-21S.STA___003                                                 6
 2005-10-28-0721-57S.SNART_003                                                 6
 2005-10-28-0722-37S.BER___003                                                 6
 2005-10-28-0722-58S.MOL___003                                                 6
 2005-10-28-0722-40S.HYA___003                                                 6
 2005 1028 0722 25.4 L  57.783   7.444  9.4  NAO  5 1.5                 3.1LNAO1
                 5.6     0.3     0.2   33.2                                    5
     534  NORTH SEA                                                            3
 STAT SP IPHASW D HRMM SECON CODA AMPLIT PERI AZIMU VELO AIN AR TRES W  DIS CAZ7
 SNARTSZ IP     C  722 37.61  133                         93    0.1410 92.3   3 
 SNARTSZ I         722 38.75                                           92.3   3 
 SNARTSZ ES        722 47.43                              93   -0.9010 92.3   3 
 SNARTSN E         722 49.72                                           92.3   3 
 SNARTSZ  AML      722 50.04      1911.2 0.36                          92.3   3 
 STAV SZ EP   9    722 47.86   92                         55   -1.22 0  180 333 
 STAV SZ ES        723  6.49                                   -0.8110  180 333 
 STAV SZ  AML      723 10.21       177.0 0.31                           180 333 
 BLS5 SZ EP        722 54.44  144                         55    0.7210  217 350 
 BLS5 SZ ESg       723 21.05                              91   -0.1010  217 350 
 BLS5 SZ  AML      723 22.37       596.7 0.44                           217 350 
 KMY  SZ EP        722 53.55  118                         55   -0.3810  219 330 
 KMY  SZ ES        723 15.07                              55   -1.8910  219 330 
 KMY  SZ  AML      723 17.17       141.1 0.16                           219 330 
 ODD1 SZ EP        722 59.94  149                         55   -0.3010  269 354 
 ODD1 SZ ES        723 26.63                              55   -1.3110  269 354 
 ODD1 SZ ESg       723 33.11                              91   -1.8410  269 354 
 ODD1 SZ  AML      723 33.73       261.7 0.32                           269 354 
 KONO BZ EP   9    723  3.52  170                         55    2.24 0  278  30 
 KONO BN E         723  6.10                                            278  30 
 KONO BZ ES        723 31.95                              55   -0.0410  278  30 
 KONO BZ ESg       723 36.92                              92   -2.5410  278  30 
 EGD  SZ EP        723  6.99  183                         55   -0.3410  327 341 
 EGD  SZ ES        723 39.73                              55   -0.5510  327 341 
 EGD  SZ  AML      723 53.56        95.1 0.36                           327 341 
 BER  SZ EP        723  8.71  185                         55    0.1610  336 343 
 BER  SZ ES        723 41.69                              55   -0.7110  336 343 
 BER  SZ ESg       723 52.48                              91   -0.1910  336 343 
 BER  SZ  AML      723 56.82        83.1 0.36                           336 343 
 RUND SZ EP        723  9.12  152                         55    0.2010  339 343 
 RUND SZ ES        723 41.84                              55   -1.2110  339 343 
 RUND SZ ESg       723 53.10                              91   -0.3010  339 343 
 RUND SZ  AML      724  1.43       145.2 0.56                           339 343 
 OSL  SZ ESg       723 55.18                              91    1.3910  341  36 
 OSL  SZ  AML      723 59.83       227.5 0.53                           341  36 
 ASK  SZ EP        723  9.45  201                         55   -0.7110  349 342 
 ASK  SZ ES        723 44.46                              55   -0.7510  349 342 
 ASK  SZ ESg       723 55.17                              91   -0.9210  349 342 
 ASK  SZ  AML      724  2.40       143.2 0.40                           349 342 
 HYA  SZ EP        723 19.07  213                         55    1.2910  411 353 
 HYA  SZ ESg       724 13.34                              90    1.0810  411 353 
 HYA  SZ  AML      724 19.20        84.2 0.40                           411 353 
 SUE  SZ EP        723 17.99  183                         53   -0.6210  418 342 
 SUE  AZ E         724 12.50                                            418 342 
 SUE  SZ ESg       724 15.93                              90    1.8610  418 342 
 SUE  SZ  AML      724 19.98        52.5 0.36                           418 342 
 NB2  SZ  Pn      0723 23.77                  210.8  8.3  55 -1 0.2410  456  29 
 NB2  SZ  Sg      0724 24.55                  224.7  3.2  90 12 0.1710  456  29 
 FOO  SZ EP        723 24.65  216                         53   -0.3710  470 346 
 FOO  SZ ESg       724 30.03                              90    2.0310  470 346 
 FOO  SZ  AML      724 32.50        47.6 0.45                           470 346 
 HFS  SZ  Pn      0723 26.60                  235.8  8.2  55  1 0.4410  478  50 
 HFS  SZ  Sn      0724 12.74                  231.2  5.6  55 -3-0.3110  478  50 
 DOMB SZ EP        723 31.74  186                         53    0.6210  520  11 
 DOMB SZ ESg       724 41.60                              90    0.4210  520  11 
 DOMB SZ  AML      724 47.33       148.3 0.57                           520  11 
 MOL  SZ EP        723 37.14  171                         53    0.7510  564   2 
 MOL  SZ ESg       724 56.33                              90    3.6210  564   2 
 MOL  SZ  AML      725  2.35        57.2 0.52                           564   2 
 FIA0 SZ  Pn      0724 50.30                  259.5  9.1  55  3 0.17 9 1154  60 
 FIA0 SZ  Sn      0726 37.55                  251.8  5.1  55 -3-1.61 9 1154  60 
 FIA0 SZ  Lg      0727 41.20                  262.7  4.3  47  7-2.23 9 1154  60 
 ARA0 SZ  P       0725 44.05                  210.8  8.2  51-11 4.31 6 1609  26 
                                                                                
 2006  313 1250 58.6 L  57.392   9.252 14.1  BER 10 0.7 1.7LBER 2.1CBER 1.9LNAO1
 GAP=129        4.01       5.7    14.9 15.1  0.1030E+01  0.8105E+02 -0.2638E+02E
 ACTION:UP  10-11-11 10:25 OP:alk  STATUS:               ID:20060313125058 L   I
 2006-03-13-1251-37S.KMY___003                                                 6
 2006-03-13-1251-07S.ODD___003                                                 6
 2006-03-13-1251-05S.BLS___003                                                 6
 2006-03-13-1250-42S.SNART_003                                                 6
 2006-03-13-1247-39S.KONO__003                                                 6
