 2001  718 2117 52.9 L  57.009   6.984 10.0F BER 25 1.5 2.1LBER 2.9CBER 2.3LNAO1
 GAP=224        5.09      14.7    23.3  0.0  0.1938E+03  0.1521E+02 -0.2494E+02E
 2001  718 2117 51.0 L  56.865   6.656 39.7  DNK 20 1.8                        1
 ACTION:UPD 10-11-04 13:19 OP:alk  STATUS:               ID:20010718211752 L   I
 Depth calculated to 30km, fixed to 10 km, alk                                 3
 2001-07-18-2119-13S.FOO___003                                                 6
 2001-07-18-2119-02S.HYA___003                                                 6
 2001-07-18-2119-39S.MOL___006                                                 6
 2001-07-18-2118-43S.ODD___003                                                 6
 2001-07-18-2118-45S.RND___003                                                 6
 2001-07-18-2118-13S.WNN___005                                                 6
 2001-07-18-2117-57S.BLS___003                                                 6
 2001-07-18-2118-12S.STA___003                                                 6
 2001-07-18-2113-50S.KONO__003                                                 6
 2001-07-18-2117-55S.ARHUS_015                                                 6
 2001 0718 2117 52.8 L  57.191   7.587       NAO  2 0.9                 2.3LNAO1
                 4.8     0.1     0.2   -1.0                                    5
     534  NORTH SEA                                                            3
 2001  718 2117 49.8 L                                                         1
 2001-07-18-2117-49S.KMY___003                                                 6
 Data from Arhus added. More info at DAT/DATA/ARHUS. mbs                       3
 STAT SP IPHASW D HRMM SECON CODA AMPLIT PERI AZIMU VELO AIN AR TRES W  DIS CAZ7
 MUD      P   0   2118 14.1                               50   -1.5310  147 1144
 MUD      S   0   2118 33.7                               50    1.2810  147 1144
 STAV SE ES       2118 49.41                              50   -0.3910  227 341 
 KMY  SZ EP       2118 29.40  170                         50   -0.8810  265 338 
 KMY  SZ ES       2118 56.10                              50   -1.8110  265 338 
 KMY  SZ  AMPL    2118 58.93        20.2 0.20                           265 338 
 BLS5 SZ EP       2118 30.18  187                         50   -0.8510  271 354 
 BLS5 SN ES       2118 58.20                              50   -1.0110  271 354 
 BLS5 SZ  AMPL    2119 11.26        28.1 0.37                           271 354 
 ODD1 SN E        2119  8.99                                            324 356 
 KONO BZ EP       2118 39.02  220                         50    0.4610  331  26 
 KONO BN ES       2119 11.86                              50   -0.4510  331  26 
 KONO BZ E        2119 35.23                                            331  26 
 COP      S   0   2119 15.5                               50   -4.6110  368 1114
 EGD  SZ EP       2118 43.10  180                         50   -1.1410  377 345 
 EGD  SZ  AMPL    2119 47.89         9.0 0.73                           377 345 
 BER  SZ EP       2118 47.74  167                         50    2.2010  388 346 
 RUND BZ EP       2118 53.50  165                         50    7.5710  391 347 
 RUND BZ ES       2119 24.84                              50   -0.3010  391 347 
 ASK  SZ EP       2118 46.12  168                         50   -1.0010  401 346 
 ASK  SZ E        2118 53.51                                            401 346 
 ASK  SZ ES       2119 25.20                              50   -2.0110  401 346 
 ASK  SZ  AMPL    2119 52.58         9.6 0.26                           401 346 
 HYA  SN E        2119 40.11                                            465 355 
 NRA0 SZ  Pn      2118 56.08                  219.0  9.4  50  5-2.3210  491  30 
 NRA0 SZ  Sn      2119 45.13                  205.5  5.3  50 -8-1.7010  491  30 
 HFS  SZ  Pn      2119 00.38                  240.2  8.0  50  9-1.9410  523  45 
 HFS  SZ  Sn      2119 49.08                  238.6  4.2  50  7-4.5810  523  45 
 FOO  SZ E        2119 51.73                                            523 349 
 MOL  BZ E        2120 15.14                                            620   3 
 VAF      P   0   2120 11.3                               47    0.97 9 1098  464
 VAF      S   0   2121 54.5                               47    2.50 9 1098  464
 PVF      P   0   2120 17.8                               47    0.69 9 1156  624
 PVF      S   0   2122  5.1                               47    1.31 9 1156  624
 KEF      P   0   2120 18.8                               47    1.56 9 1157  534
 KEF      S   0   2122  4.8                               47    0.78 9 1157  534
 KAF      P   0   2120 26.2                               47    0.93 8 1225  544
 KAF      S   0   2122 19.1                               47    1.11 8 1225  544
 SUF      P   0   2120 28.9                               47    1.74 8 1241  514
 SUF      S   0   2122 21.9                               47    0.62 8 1241  514
 OUL      P   0   2120 42.8                               47    2.60 8 1352  414
 KJN      P   4   2120 40.0                               47   -2.80 0 1374  474
 KJN      S   0   2122 49.4                               47    0.90 7 1374  474
 JOF      P   0   2120 58.9                               47    1.54 7 1498  544
 JOF      S   0   2123 15.9                               47    2.08 7 1498  544
 MSF      P   4   2121 10.0                               47    9.50 0 1525  414
 MSF      S   0   2123 23.5                               47    4.20 6 1525  414                                                                                
                                                                                                                                                          
 2002  519 2248 45.9 L  57.599   7.067 20.3  BER 19 1.0 2.1LBER 2.5CBER 2.5LNAO1
 GAP=198        4.85       7.8    18.4 12.5  0.9857E+02  0.5949E+02  0.2165E+02E
 2002  519 2248 42.7 L  57.681   7.102  8.3  DNK 19 1.9 2.9CDNK 2.3LDNK        1
 ACTION:UP  10-11-04 14:03 OP:alk  STATUS:               ID:20020519224845 L   I
 2002-05-19-2249-07S.FOO___003                                                 6
 2002-05-19-2249-32S.HYA___003                                                 6
 2002-05-19-2249-18S.MOL___006                                                 6
 2002-05-19-2248-47S.ODD___003                                                 6
 2002-05-19-2249-36S.RND___003                                                 6
 2002-05-19-2249-39S.SUE___003                                                 6
 2002-05-19-2248-28S.WNN___004                                                 6
 2002-05-19-2248-37S.BLS___003                                                 6
 2002-05-19-2249-26S.OSL___001                                                 6
 2002-05-19-2248-36S.STA___003                                                 6
 2002-05-19-2249-52S.DOM___001                                                 6
 2002 0519 2248 45.7 L  57.683   7.176 23.6  NAO  3 1.0                 2.5LNAO1
                 5.1     0.1     0.0   33.2                                    5
     534  NORTH SEA                                                            3
 STAT SP IPHASW D HRMM SECON CODA AMPLIT PERI AZIMU VELO AIN AR TRES W  DIS CAZ7
 STAV SZ EP       2249  9.40   87                         55   -0.9410  169 332 
 STAV SZ ES       2249 28.19                              55   -0.2710  169 332 
 STAV SZ  AMPL    2249 30.87        55.3 0.06                           169 332 
 MUD  HZ EP       2249 13.43                              55    1.7210  180 134 
 MUD  HN ES       2249 35.36                              55    4.5210  180 134 
 MUD  HZ ISG      2249 37.99                              93    3.4510  180 134 
 MUD  HZ  SN  4   2249 38.50                              55    7.66 0  180 134 
 MUD  HZ  LG      2249 38.53                               0    2.6710  180 134 
 BLS5 SZ EP       2249 14.97  128                         55   -0.0610  206 350 
 BLS5 SZ ESG      2249 41.45                              93   -0.0510  206 350 
 BLS5 SZ  AMPL    2249 42.79       139.4 0.39                           206 350 
 ODD1 SZ EP       2249 20.65   90                         55   -0.9210  259 355 
 ODD1 SN ES       2249 48.67                              55    0.6810  259 355 
 ODD1 SZ  AMPL    2249 54.52        12.0 0.42                           259 355 
 EGD  SZ EP       2249 27.79                              55   -0.8110  316 341 
 EGD  SZ ES       2249 59.88                              55   -0.3410  316 341 
 EGD  SZ ESG      2250 10.77                              92    0.4310  316 341 
 EGD  SZ  AMPL    2250 13.15        23.2 0.45                           316 341 
 BER  SZ EP       2249 29.41                              55   -0.4110  326 343 
 BER  SZ ES       2250  1.37                              55   -0.9810  326 343 
 BER  SZ ESG      2250 11.96                              92   -0.9810  326 343 
 RUND BZ ES       2250  3.61                              55    0.6110  328 343 
 RUND BZ  AMPL    2250 19.87        14.4 0.48                           328 343 
 OSL  SZ ESG      2250 16.68                              92    1.1910  335  38 
 OSL  SZ  AMPL    2250 19.17        47.8 0.23                           335  38 
 ASK  SZ EP       2249 30.53                              55   -0.9110  339 342 
 ASK  SZ ESG      2250 16.45                              92    0.0910  339 342 
 ASK  SZ  AMPL    2250 21.25        20.5 0.30                           339 342 
 COP  HZ IP   4   2249 16.79                              55   -21.3 0  392 121 
 COP  HZ  LG      2250 27.33                              41   -7.4810  392 121 
 HYA  SZ EP       2249 39.95  156                         55    0.8510  400 353 
 HYA  SZ ESG      2250 33.11                              91    0.4910  400 353 
 HYA  SZ  AMPL    2250 44.38        15.5 0.54                           400 353 
 SUE  SZ ES       2250 18.46                              53   -1.4210  407 342 
 SUE  SZ  AMPL    2250 40.23        12.8 0.41                           407 342 
 NRA0 SZ  Pn      2249 42.50                  216.2  9.9  55 -1-0.6610  433  34 
 NRA0 SZ  Sn      2250 26.92                  214.4  9.6  55 -3 1.3610  433  34 
 NRA0 SZ  Lg      2250 46.10                  216.0  3.8   0 -1-0.0210  433  34 
 FOO  SZ EP       2249 45.36  206                         53   -0.9510  460 346 
 FOO  SZ ESG      2250 48.72                              91    0.4410  460 346 
 HFS  SZ  Pn      2249 47.58                  246.1  7.6  55 10-0.8210  475  51 
 HFS  SZ  Sn      2250 34.88                  243.2  4.6  55  7 0.2110  475  51 
 HFS  SZ  Lg      2250 55.83                  238.9  3.7  90  2-2.0110  475  51 
 DOMB SZ ESG      2251  3.70                              91    1.7510  511  12 
 DOMB SZ  AMPL    2251  8.11        29.9 0.17                           511  12 
 MOL  SZ EP       2249 57.04  177                         53   -0.7610  555   3 
 MOL  SZ ESG      2251 16.98                              91    3.7410  555   3 
 BSD  HZ EP       2249 57.34                              53   -0.8810  558 116 
 BSD  HZ I        2250  3.96                                            558 116 
 BSD  HN IS       2250 51.25                              53   -0.5010  558 116 
 BSD  HZ  LG      2251 19.36                              50   -1.5010  558 116 
 BSD  HN E        2251 54.32                                            558 116 
 FIA0 SZ  Pn      2251 11.02                  255.3  9.8  55  0-1.58 9 1153  60 
 FIA0 SZ  Sn      2253 02.12                  252.4  5.1  55 -3 0.94 9 1153  60 
                                                                                
 2002  526 1448 17.0 L  56.935   7.222 28.1  BER 16 0.9 1.8LBER 2.2CBER 2.2LNAO1
 GAP=223        4.41       9.7    19.6 22.1  0.1150E+03  0.1621E+03 -0.2114E+02E
 2002  526 1448 15.8 L  56.969   7.283 35.3  DNK 18 1.6 2.6CDNK 2.1LDNK        1
 ACTION:UPD 10-11-04 14:03 OP:alk  STATUS:               ID:20020526144817 L   I
 2002-05-26-1448-14S.KMY___003                                                 6
 2002-05-26-1448-55S.ODD___003                                                 6
 2002-05-26-1449-06S.WNN___004                                                 6
 2002-05-26-1448-25S.BLS___003                                                 6
 2002-05-26-1447-20S.KONO__003                                                 6
 2002-05-26-1448-35S.STA___003                                                 6
 2002-05-26-1450-04S.FOO___003                                                 6
 2002-05-26-1449-31S.HYA___003                                                 6
 2002-05-26-1450-02S.MOL___006                                                 6
 2002-05-26-1449-27S.SUE___003                                                 6
 2002 0526 1448 18.9 L  56.999   7.693 41.9  NAO  3 1.0                 2.2LNAO1
                 6.6     0.2     0.1   75.7                                    5
     534  NORTH SEA                                                            3
 STAT SP IPHASW D HRMM SECON CODA AMPLIT PERI AZIMU VELO AIN AR TRES W  DIS CAZ7
 MUD  HZ IP       1448 37.23                              62    1.0610  131 113 
 MUD  HZ I        1448 41.48                                            131 113 
 MUD  HN IS       1448 52.45                              62    2.1310  131 113 
 MUD  HZ  LG      1448 55.27                              13    1.9710  131 113 
 STAV SZ EP       1448 49.35   78                         62   -0.4510  240 339 
 STAV SZ ES       1449 14.53                              62    0.4910  240 339 
 STAV SZ  AMPL    1449 28.45        12.9 0.33                           240 339 
 KMY  SZ EP       1448 54.32  108                         62   -0.2110  278 336 
 KMY  SZ ES       1449 22.35                              62    0.0810  278 336 
 BLS5 SZ EP       1448 55.53  101                         62    0.6510  281 351 
 BLS5 SN ES       1449 24.36                              62    1.4710  281 351 
 BLS5 SZ  AMPL    1449 42.38        23.6 0.30                           281 351 
 KONO BZ EP       1449  0.99  130                         62   -0.3310  333  24 
 KONO BZ ES       1449 35.10                              62    1.0110  333  24 
 COP  HZ IP       1448 59.18                              62   -4.4010  351 111 
 COP  HZ  LG      1449 56.35                               0    1.7510  351 111 
 EGD  SZ EP       1449  7.49                              62   -0.8210  389 343 
 EGD  SZ ES       1449 47.05                              62    0.8010  389 343 
 EGD  SZ  AMPL    1450 14.29         6.8 0.42                           389 343 
 ASK  SZ EP       1449 10.66  115                         59   -0.4510  412 344 
 ASK  SZ ES       1449 50.82                              59   -0.3010  412 344 
 HYA  SZ ES       1450  6.71                              59    2.3610  475 353 
 HYA  SZ  AMPL    1450 36.00         8.4 0.41                           475 353 
 SUE  SN ES       1450  4.76                              59   -0.7310  480 344 
 NRA0 SZ  Pn      1449 19.74                  203.4  8.9  62 -8-1.2610  491  29 
 NRA0 SZ  Sn      1450 09.24                  199.5  4.5  62-12 0.9110  491  29 
 NRA0 SZ  Lg      1450 32.27                  206.3  4.0  50 -5-1.2110  491  29 
 HFS  SZ  Pn      1449 23.50                  233.0  8.7  62  4-0.8810  518  44 
 HFS  SZ  Sn      1450 13.08                  241.9  4.0  62 12-1.1310  518  44 
 HFS  SZ  Lg      1450 40.23                  230.7  3.5  50  1-0.8310  518  44 
 BSD  HZ EP       1449 22.25                              59   -1.9610  520 110 
 BSD  HZ I        1449 30.65                                            520 110 
 BSD  HN IS       1450 12.04                              59   -1.8710  520 110 
 BSD  HZ  LG      1450 44.63                              50    3.0610  520 110 
 FOO  SN ES       1450 17.22                              59    0.4210  534 347 
 MOL  SZ ES       1450 39.27                              59    2.6210  628   2 
 MOL  SZ  AMPL    1451 13.03         3.7 0.56                           628   2 
 FIA0 SZ  Pn      1450 44.52                  251.2  9.2  62 -1-2.46 9 1184  57 
 FIA0 SZ  Sn      1452 35.25                  253.4  5.4  62  0-2.69 9 1184  57                                                                                 
                                                                                
 2002  630 2334 14.0 L  57.696   6.873 15.0  BER 15 0.9 2.1LBER 2.1CBER 2.5LNAO1
 GAP=197        4.33       8.7    16.9 16.0  0.9528E+02  0.4537E+02  0.5613E+02E
 2002  630 2334 12.2 L  57.789   6.969 15.0  DNK 15 1.3 2.4CDNK 2.3LDNK        1
 ACTION:UPD 10-11-04 14:03 OP:alk  STATUS:               ID:20020630233414 L   I
 2002-06-30-2334-03S.WNN___004                                                 6
 2002-06-30-2334-00S.KMY___003                                                 6
 2002-06-30-2334-35S.ODD___003                                                 6
 2002-06-30-2335-05S.SUE___003                                                 6
 2002-06-30-2334-05S.BLS___003                                                 6
 2002-06-30-2332-27S.KONO__003                                                 6
 2002-06-30-2334-14S.STA___003                                                 6
 2002-06-30-2335-18S.FOO___003                                                 6
 2002-06-30-2335-09S.HYA___003                                                 6
 2002-06-30-2335-50S.DOM___001                                                 6
 2002-06-30-2335-43S.MOL___006                                                 6
