 2004  629 0125 32.9 L*                      BER        2.9WBER                1
 SPEC AVERAGE  MO 13.4 ST 62.3 OM  2.2 f0 10.3 R0.1449 AL 6.64 WI 15.7 MW  2.9 3
 SPEC SD       MO  0.3 ST 60.5 OM  0.5 f0 4.10 R0.0602 AL      WI      MW  0.2 3
 GAP=108        3.01       4.4     6.0  0.0 -0.3240E+01  0.2923E+00 -0.2337E+01E
 SPEC TRONS  E MO 13.3 ST  8.2 OM  0.8 f0 5.56 R0.2266 AL 2.12 WI 25.1 MW  2.8 3
 SPEC TRONS  E T 12631 K 0.000 GD  458 VP 6.20 DE 3.00 Q0440.0 QA 0.70 VS 3.60 3
 SPEC SNARS  Z MO 13.8 ST 44.7 OM  2.6 f0 6.66 R0.1892 AL 3.07 WI 15.6 MW  3.2 3
 SPEC SNARS  Z T 12610 K 0.000 GD  117 VS 3.60 DE 3.00 Q0440.0 QA 0.70 VS 3.60 3
 SPEC DOMBS  Z MO 13.6 ST 44.6 OM  2.2 f0 8.00 R0.1575 AL 2.99 WI 17.1 MW  3.0 3
 SPEC DOMBS  Z T 12648 K 0.000 GD  170 VS 3.60 DE 3.00 Q0440.0 QA 0.70 VS 3.60 3
 SPEC STAVS  Z MO 13.6 ST 12.1 OM  2.4 f0 5.06 R0.2490 AL 1.72 WI 15.0 MW  3.0 3
 SPEC STAVS  Z T 126 6 K 0.000 GD  115 VS 3.60 DE 3.00 Q0440.0 QA 0.70 VS 3.60 3
 SPEC SUE S  Z MO 13.1 ST 63.6 OM  1.8 f0 12.7 R0.0992 AL 6.76 WI 12.8 MW  2.7 3
 SPEC SUE S  Z T 12633 K 0.000 GD  152 VS 3.60 DE 3.00 Q0440.0 QA 0.70 VS 3.60 3
 SPEC MOL S  Z MO 13.2 ST 24.6 OM  1.8 f0 8.70 R0.1448 AL 5.03 WI 28.4 MW  2.8 3
 SPEC MOL S  Z T 12659 K 0.000 GD  183 VS 3.60 DE 3.00 Q0440.0 QA 0.70 VS 3.60 3
 SPEC HYA S  Z MO 13.3 ST 88.6 OM  2.0 f0 12.5 R0.1008 AL 8.96 WI  9.1 MW  2.8 3
 SPEC HYA S  Z T 12625 K 0.000 GD  140 VS 3.60 DE 3.00 Q0440.0 QA 0.70 VS 3.60 3
 SPEC FOO S  Z MO 13.3 ST175.6 OM  1.9 f0 16.1 R0.0783 AL13.67 WI 19.0 MW  2.8 3
 SPEC FOO S  Z T 12644 K 0.000 GD  164 VS 3.60 DE 3.00 Q0440.0 QA 0.70 VS 3.60 3
 SPEC OSL S  Z MO 13.4 ST 32.5 OM  2.1 f0 8.46 R0.1489 AL 3.51 WI  5.8 MW  2.9 3
 SPEC OSL S  Z T 12620 K 0.000 GD  132 VS 3.60 DE 3.00 Q0440.0 QA 0.70 VS 3.60 3
 SPEC KONOB00Z MO 14.1 ST 23.8 OM  2.9 f0 4.48 R0.2813 AL 1.32 WI 20.0 MW  3.3 3
 SPEC KONOB00Z T 126 0 K 0.000 GD  103 VS 3.60 DE 3.00 Q0440.0 QA 0.70 VS 3.60 3
 SPEC BLS5S  Z MO 13.1 ST 79.4 OM  2.1 f0 13.9 R0.0906 AL 7.22 WI 18.1 MW  2.7 3
 SPEC BLS5S  Z T 12552 K 0.000 GD 72.8 VS 3.60 DE 3.00 Q0440.0 QA 0.70 VS 3.60 3
 SPEC RUNDS  Z MO 13.5 ST 38.3 OM  2.2 f0 8.38 R0.1504 AL 2.74 WI 16.2 MW  2.9 3
 SPEC RUNDS  Z T 12614 K 0.000 GD  127 VS 3.60 DE 3.00 Q0440.0 QA 0.70 VS 3.60 3
 SPEC ODD1S  Z MO 12.8 ST 92.2 OM  1.8 f0 18.4 R0.0685 AL26.62 WI  9.6 MW  2.5 3
 SPEC ODD1S  Z T 12550 K 0.000 GD 72.7 VS 3.60 DE 3.00 Q0440.0 QA 0.70 VS 3.60 3
 SPEC KMY S  Z MO 13.3 ST245.2 OM  2.1 f0 17.1 R0.0737 AL16.94 WI 16.4 MW  2.8 3
 SPEC KMY S  Z T 12610 K 0.000 GD  120 VS 3.60 DE 3.00 Q0440.0 QA 0.70 VS 3.60 3
 SPEC ASK S  Z MO 13.2 ST 36.9 OM  1.9 f0 10.3 R0.1223 AL 4.26 WI 13.2 MW  2.7 3
 SPEC ASK S  Z T 12620 K 0.000 GD  131 VS 3.60 DE 3.00 Q0440.0 QA 0.70 VS 3.60 3
 SPEC EGD S  Z MO 13.2 ST 17.0 OM  1.9 f0 8.07 R0.1561 AL 2.54 WI  9.3 MW  2.7 3
 SPEC EGD S  Z T 12613 K 0.000 GD  126 VS 3.60 DE 3.00 Q0440.0 QA 0.70 VS 3.60 3
 SPEC BER S  Z MO 13.2 ST 31.9 OM  1.9 f0 9.94 R0.1268 AL 3.47 WI 17.0 MW  2.7 3
 SPEC BER S  Z T 12612 K 0.000 GD  126 VS 3.60 DE 3.00 Q0440.0 QA 0.70 VS 3.60 3
 ACTION:UP  10-11-08 10:45 OP:alk  STATUS:               ID:20040629012532 L   I
 using local model indicates depth on 8km, fixed                               3
 2004-06-29-0125-32.MACRO                                                 MACRO3
 2004-06-29-0125-16S.WNN___003                                                 6
 2004-06-29-0125-15S.KMY___003                                                 6
 2004-06-29-0125-03S.ODD___003                                                 6
 2004-06-29-0125-18S.RND___001                                                 6
 2004-06-29-0125-05S.BLS___003                                                 6
 2004-06-29-0124-00S.KONO__003                                                 6
 2004-06-29-0125-51S.OSL___001                                                 6
 2004-06-29-0125-30S.FOO___003                                                 6
 2004-06-29-0125-24S.HYA___003                                                 6
 2004-06-29-0125-41S.MOL___006                                                 6
 2004-06-29-0125-27S.SUE___006                                                 6
 2004-06-29-0126-12S.NSS___003                                                 6
 2004-06-29-0126-05S.TRN___003                                                 6
 2004-06-29-0126-28S.MOR___003                                                 6
 2004-06-29-0124-59S.STA___003                                                 6
 2004-06-29-0125-35S.DOM___001                                                 6
 2004-06-29-0125-14S.SNART_003                                                 6
                            3 MM                                        BER    2
 Norsar phonecalls from Bykle,Valle,Edland,Tinnsj,Vinje and Dalen, Telemark   3
 Questionnaires sent, alk                                                      3
 Too few felt responces to questionaries to make contour map. MBS.             3
 2004 0629 0125 32.9 L  59.632   7.930       NAO  4 1.6                 3.3LNAO1
                 2.7     0.3     0.2   -1.0                                    5
     535  SOUTHERN NORWAY                                                      3
 STAT SP IPHASW D HRMM SECON CODA AMPLIT PERI AZIMU VELO AIN AR TRES W  DIS CAZ7
 ODD1 SZ IP   9 D  125 42.98  140                         97   -1.67 0 72.3 303 
 ODD1 SZ ES        125 51.43                                   -0.2510 72.3 303 
 ODD1 SZ  AML      125 52.68       406.4 0.16                          72.3 303 
 BLS5 SZ IP     D  125 45.02  168                         97    0.3610 72.4 259 
 BLS5 SZ ES        125 53.16                              97   -0.2110 72.4 259 
 BLS5 SZ  AML      125 55.60       884.3 0.36                          72.4 259 
 KONO BZ IP     D  125 50.32  153                         70    0.2710  107  84 
 KONO BZ ES        126  2.98                              70    0.2410  107  84 
 STAV SZ IP     C  125 53.56  119                         70   -0.5010  134 240 
 STAV SZ ES        126  8.79                              70   -0.9210  134 240 
 STAV SZ  AML      126 11.01       481.4 0.08                           134 240 
 SNARTSZ IP     C  125 54.76  243                         50   -0.0110  139 192 
 SNARTSZ ES        126 10.65                              50   -0.3110  139 192 
 SNARTSZ  AML      126 12.35       761.0 0.28                           139 192 
 KMY  SZ EP        125 55.16  101                         50   -0.4510  146 255 
 KMY  SZ ES        126 11.21                              50   -1.2110  146 255 
 KMY  SZ  AML      126 14.26       665.3 0.24                           146 255 
 EGD  SZ IP     D  125 57.53  203                         50    0.1410  160 301 
 EGD  SZ ES        126 16.03                              50    0.5110  160 301 
 EGD  SZ  AML      126 23.22       703.3 0.32                           160 301 
 BER  SZ IP     D  125 57.80  149                         50    0.2510  161 306 
 BER  SZ ES        126 16.55                              50    0.7610  161 306 
 RUND SZ IP     D  125 57.99  162                         50    0.3410  162 307 
 RUND SZ ES        126 16.82                              50    0.8510  162 307 
 RUND SZ  AML      126 18.91       399.1 0.12                           162 307 
 ASK  SZ EP        125 59.18  171                         50    0.0610  174 307 
 ASK  SZ ES        126 20.11                              50    1.5910  174 307 
 OSL  SZ EP        126  0.70   62                         50    1.4710  175  75 
 OSL  SZ ESg       126 21.32                              93   -0.6710  175  75 
 HYA  SZ EP        126  3.27                              50    1.1710  198 335 
 HYA  SZ EPg       126  4.59                              92   -0.2510  198 335 
 HYA  SN ESg       126 27.78                              92   -0.6910  198 335 
 HYA  SZ  AML      126 32.47       362.2 0.25                           198 335 
 SUE  SZ EP        126  6.42  186                         50   -0.0710  233 317 
 SUE  SN ES        126 32.18                              50    0.8310  233 317 
 SUE  SZ ESg       126 35.86                              92   -2.5310  233 317 
 SUE  SZ  AML      126 40.06       197.9 0.23                           233 317 
 NB2  SZ  Pn      0126 09.80                              50    0.5810  255  48 
 NB2  SZ  Pg      0126 12.55                              92   -1.4510  255  48 
 NB2  SZ  Lg      0126 41.85                              21   -1.7910  255  48 
 FOO  SZ EP        126 10.99  169                         50   -0.0810  270 328 
 FOO  SZ ESg       126 45.46                              92   -3.2810  270 328 
 FOO  SZ  AML      126 48.94       136.9 0.29                           270 328 
 DOMB SZ EP        126 14.18  209                         50    0.5110  291  15 
 DOMB SZ ESg       126 52.59                              92   -1.8710  291  15 
 DOMB SZ  AML      126 55.72       146.7 0.30                           291  15 
 MOL  SZ EP        126 21.26  181                         50    2.0310  336 359 
 MOL  SN ES        126 57.06                              50    3.5410  336 359 
 MOL  SZ  AML      127  9.77       131.3 0.62                           336 359 
 HFS  SZ  Pn      0126 19.93                              50   -0.0610  342  77 
 HFS  SZ  Lg      0127 05.88                  253.5  3.6  29 -7-1.9310  342  77 
 TRON SE EP        126 35.46                              49    1.1810  458  17 
 NSS  BZ EP        126 50.79                              49   -0.3810  597  20 
 NSS  BZ ES        127 50.28                              49    1.1910  597  20 
 MOR8 SZ EP        127 20.84                              47    1.9510  829  22 
 FIA0 SZ  Pn      0127 45.10                  263.0  9.9  50 -2-0.0610 1028  70 
 FIA0 SZ  Sn      0129 23.57                  264.8  5.2  50 -1 0.5310 1028  70 
 FIA0 SZ  Lg      0130 18.97                  268.4  5.0   0  2 0.6310 1028  70 
 ARA0 SZ  Pn      0128 26.77                  215.6  8.4  50 -9-3.64 7 1392  30 
 ARA0 SZ  Lg      0131 59.02                  223.5  4.6  50 -1-0.41 7 1392  30 
                                                                                
 2004  9 3 0931 29.2 L* 58.221   7.677 17.5F BER 21 1.0 2.8LBER 2.6CBER 2.9LNAO1
 2004  9 3 0931 29.2 L*                      BER        2.9WBER                1
 SPEC AVERAGE  MO 13.4 ST 10.8 OM  3.2 f0 5.97 R0.2111 AL 2.41 WI 20.3 MW  2.9 3
 SPEC SD       MO  0.0 ST0.000 OM  1.3 f00.000 R0.0000 AL      WI      MW  0.0 3
 GAP=233        3.53       8.6     9.0  0.0  0.6456E+01 -0.1432E+03 -0.7676E+01E
 Local model and RMSDEP indicates 17.5 km depth. Fixed. mbs.                   3
 SPEC ODD1S  Z MO 13.4 ST 10.8 OM  1.9 f0 5.97 R0.2111 AL 2.41 WI 20.3 MW  2.9 3
 SPEC ODD1S  Z T 93217 K 0.000 GD  198 VS 3.60 DE 3.00 Q0440.0 QA 0.70 VS 3.60 3
 Norsar got several phonecalls, questionnaires sent, alk                       3
 Too few questionnaires to be able to plot the intensity contour map,alk       3
 ACTION:UP  10-11-08 10:45 OP:alk  STATUS:               ID:20040903093129 L   I
 2004-09-03-0931-29.MACRO                                                 MACRO3
 2004-09-03-0931-53S.FOO___003                                                 6
 2004-09-03-0931-45S.HYA___003                                                 6
 2004-09-03-0931-14S.KMY___003                                                 6
 2004-09-03-0931-55S.MOL___006                                                 6
 2004-09-03-0931-18S.ODD___003                                                 6
 2004-09-03-0931-31S.RND___001                                                 6
 2004-09-03-0931-42S.SUE___006                                                 6
 2004-09-03-0931-26S.WNN___003                                                 6
 2004-09-03-0927-46S.KONO__003                                                 6
 2004-09-03-0931-33S.OSL___001                                                 6
 2004-09-03-0931-47S.DOM___001                                                 6
 2004-09-03-0931-10S.STA___003                                                 6
 2004-09-03-0931-13S.BLS___003                                                 6
 2004-09-03-0930-59S.SNART_003                                                 6
                            3 MM                                        BER    2
 2004 0903 0931 31.4 L  58.439   7.850 21.3  NAO  5 1.3                 2.9LNAO1
                 5.6     0.3     0.2   34.0                                    5
     535  SOUTHERN NORWAY                                                      3
 STAT SP IPHASW D HRMM SECON CODA AMPLIT PERI AZIMU VELO AIN AR TRES W  DIS CAZ7
 SNARTSZ IP     D  931 34.10  101                        116   -0.6510 30.4 296 
 SNARTSZ ES        931 37.77                             116   -1.0910 30.4 296 
 STAV SZ EP        931 49.34   83                         55   -0.9410  140 306 
 STAV SZ ES        932  4.52                              55   -1.3710  140 306 
 STAV SZ  AML      932  5.97       221.9 0.19                           140 306 
 BLS5 SZ EP        931 52.41  156                         55    0.6310  151 333 
 BLS5 SZ EPg       931 53.16                              93    0.3210  151 333 
 BLS5 SZ ES        932  8.71                              55    0.2210  151 333 
 BLS5 SZ  AML      932 12.10       220.5 0.37                           151 333 
 KMY  SZ EP        931 54.33  117                         55   -0.7810  179 309 
 KMY  SZ ES        932 15.24                              55    0.9510  179 309 
 KMY  SZ  AML      932 16.42       127.3 0.24                           179 309 
 KONO BZ EP   9    932 28.69                              55   31.67 0  194  34 
 KONO BN ES        932 50.64                                    1.3610  194  34 
 KONO BZ  AML      932 59.83       116.1 0.60                           194  34 
 ODD1 SZ EP        931 56.53  126                         55   -1.0210  198 343 
 ODD1 SZ EPg       931 58.59                              92   -1.2710  198 343 
 ODD1 SZ ES        932 19.69                              55    1.1610  198 343 
 ODD1 SZ  AML      932 25.37       257.7 0.37                           198 343 
 OSL  SZ EP        932  5.59                              55    0.4910  259  41 
 OSL  SZ ES        932 33.31                              55    1.6510  259  41 
 OSL  SZ  AML      932 47.44        87.9 0.27                           259  41 
 EGD  SZ EP        932  5.78  153                         55   -0.4110  268 330 
 EGD  SZ EPg       932  9.80                              91   -0.6510  268 330 
 EGD  SZ ESg       932 40.40                              91   -0.5710  268 330 
 EGD  SZ  AML      932 46.81        98.8 0.68                           268 330 
 BER  SZ EPg       932 14.25  108                         91    2.6510  275 332 
 BER  SZ ESg       932 42.09                              91   -0.8910  275 332 
 BER  SZ  AML      932 47.92       117.0 0.37                           275 332 
 RUND SZ EP        932  7.34  141                         55   -0.1010  277 333 
 RUND SZ ESg       932 43.66                              91    0.1110  277 333 
 RUND SZ  AML      932 48.81       247.9 0.48                           277 333 
 ASK  SZ EP        932  8.33  160                         55   -0.4810  289 332 
 ASK  SZ EPg       932 12.73                              91   -0.9010  289 332 
 ASK  SZ ESg       932 45.31                              91   -1.2110  289 332 
 ASK  SZ  AML      932 52.04        60.2 0.47                           289 332 
 HYA  SZ EP        932 15.77  193                         55    0.7710  339 346 
 HYA  SZ ESg       932 58.98                              91   -0.6710  339 346 
 HYA  SZ  AML      933  5.27       105.3 0.36                           339 346 
 SUE  SZ EP        932 16.73  167                         55   -0.4410  356 334 
 SUE  SZ ESg       933  2.60                              91   -1.6610  356 334 
 SUE  SZ  AML      933  8.47        71.6 0.40                           356 334 
 NBO  SZ  Pn      0932 17.92                              55    0.4510  359  28 
 NBO  SZ  Pg      0932 24.47                              91    0.2810  359  28 
 NBO  SZ  Lg      0933 05.30                              50   -3.5010  359  28 
 NB2  SZ  Pn      0932 19.35                              55    0.1410  372  31 
 NB2  SZ  Lg      0933 10.07                              50   -2.4710  372  31 
 FOO  SZ EP        932 26.33  157                         55    3.2210  404 340 
 FOO  SZ ESg       933 17.25                              91    0.3710  404 340 
 FOO  SZ  AML      933 21.13        57.3 0.45                           404 340 
 HFS  SZ  Pn      0932 23.52                  244.8  7.9  55  4 0.3110  405  56 
 HFS  SZ  Sn      0933 04.07                  239.6  4.7  55  0 0.8810  405  56 
 HFS  SZ  Lg      0933 20.43                  236.5  3.7  35 -3-1.1610  405  56 
 DOMB SZ EP        932 27.74  194                         53    0.6010  437  10 
 DOMB SZ ESg       933 25.71                              91    0.1910  437  10 
 DOMB SZ  AML      933 33.93        75.8 0.33                           437  10 
 MOL  SZ EP        932 34.76  211                         53    1.8510  485 359 
 MOL  SZ ESg       933 44.35                              91    6.2010  485 359 
 MOL  SZ  AML      933 47.18        35.3 0.65                           485 359 
 FIA0 SZ  Pn      0933 47.50                  262.9  9.6  55  4-0.62 9 1088  63 
 FIA0 SZ  Sn      0935 29.55                  259.7  5.5  55  1-1.38 9 1088  63 
 FIA0 SZ  Lg      0936 31.05                  262.5  4.1   0  4-0.47 9 1088  63 
 ARA0 SZ  P       0934 38.22                  214.5  8.0  51 -8 2.34 6 1524  27 
                                                                                
 2004  928 1153 40.5 L* 57.517   7.167 15.5  BER 22 0.9 2.9LBER 2.6CBER 3.0LNAO1
