 2003 12 3 0034 45.7 L*                      BER        2.2WBER                1
 SPEC AVERAGE  MO 12.3 ST  3.3 OM  1.2 f0 8.76 R0.1526 AL 2.53 WI 13.0 MW  2.2 3
 SPEC SD       MO  0.3 ST  1.6 OM  0.6 f0 2.48 R0.0321 AL      WI      MW  0.2 3
 GAP=138        2.28       4.2     7.8  0.0  0.1580E+02  0.3894E+03 -0.2087E+03E
 Depth fixed at 15 km. Too far from stations for local model. rmsdep gives 15. 3
 SPEC KMY S  Z MO 12.4 ST  2.4 OM  0.9 f0 7.36 R0.1712 AL 1.88 WI 12.8 MW  2.2 3
 SPEC KMY S  Z T 03547 K 0.000 GD  237 VS 3.60 DE 3.00 Q0440.0 QA 0.70 VS 3.60 3
 SPEC BLS5S  Z MO 12.4 ST  1.8 OM  0.9 f0 7.04 R0.1790 AL 2.24 WI 19.5 MW  2.2 3
 SPEC BLS5S  Z T 03536 K 0.000 GD  205 VS 3.60 DE 3.00 Q0440.0 QA 0.70 VS 3.60 3
 SPEC ODD1S  Z MO 12.5 ST  2.5 OM  0.9 f0 7.36 R0.1712 AL 2.55 WI 10.4 MW  2.3 3
 SPEC ODD1S  Z T 03550 K 0.000 GD  247 VS 3.60 DE 3.00 Q0440.0 QA 0.70 VS 3.60 3
 SPEC SNARS  Z MO 12.5 ST  6.2 OM  1.4 f0 9.48 R0.1329 AL 3.03 WI  4.8 MW  2.3 3
 SPEC SNARS  Z T 035 8 K 0.000 GD 89.9 VS 3.60 DE 3.00 Q0440.0 QA 0.70 VS 3.60 3
 SPEC STAVS  Z MO 12.5 ST  3.8 OM  1.0 f0 8.41 R0.1498 AL 1.73 WI  8.9 MW  2.3 3
 SPEC STAVS  Z T 03537 K 0.000 GD  198 VS 3.60 DE 3.00 Q0440.0 QA 0.70 VS 3.60 3
 SPEC KONOB00Z MO 12.9 ST  4.5 OM  1.4 f0 6.50 R0.1938 AL 1.53 WI 20.8 MW  2.5 3
 SPEC KONOB00Z T 03535 K 0.000 GD  204 VS 3.60 DE 3.00 Q0440.0 QA 0.70 VS 3.60 3
 SPEC ASK S  Z MO 11.8 ST  1.1 OM  0.1 f0 9.16 R0.1376 AL 2.86 WI 12.4 MW  1.8 3
 SPEC ASK S  Z T 03616 K 0.000 GD  342 VS 3.60 DE 3.00 Q0440.0 QA 0.70 VS 3.60 3
 SPEC EGD S  Z MO 11.8 ST  4.2 OM  0.1 f0 14.8 R0.0851 AL 4.46 WI 14.1 MW  1.8 3
 SPEC EGD S  Z T 03610 K 0.000 GD  322 VS 3.60 DE 3.00 Q0440.0 QA 0.70 VS 3.60 3
 2003 12 3 0034 46.2 L  57.866   8.736 22.9  DNK  4 1.5 3.8LDNK                1
 ACTION:UPD 10-11-08 08:02 OP:alk  STATUS:               ID:20031203003445 L   I
 2003-12-03-0035-03S.WNN___003                                                 6
 2003-12-03-0032-52S.KONO__003                                                 6
 2003-12-03-0034-58S.STA___003                                                 6
 2003-12-03-0034-19S.SNART_003                                                 6
 2003-12-03-0034-42S.ODD___003                                                 6
 2003-12-03-0034-37S.BLS___003                                                 6
 2003-12-03-0034-39S.KMY___003                                                 6
 2003-12-03-0036-10S.FOO___003                                                 6
 2003-12-03-0035-56S.HYA___003                                                 6
 2003-12-03-0036-14S.DOM___001                                                 6
 2003-12-03-0032-59S.DNK___018                                                 6
 2003 1203 0034 42.5 L  57.871   8.724       NAO  4 1.7                 2.2LNAO1
                 3.8     0.1     0.2   -1.0                                    5
     542  DENMARK                                                              3
 STAT SP IPHASW D HRMM SECON CODA AMPLIT PERI AZIMU VELO AIN AR TRES W  DIS CAZ7
 SNARTSZ EP        034 59.51   37                         93   -0.3310 88.6 303 
 SNARTSZ ES        035 10.09                              93   -0.1910 88.6 303 
 SNARTSZ  AML      035 10.24       347.9 0.24                          88.6 303 
 MUD  HZ I         035 11.53                              50            167 165 
 MUD  HZ EP        035 11.65  202                         55    1.2610  167 165 
 MUD  HE ES        035 30.75                              55    2.1010  167 165 
 MUD  HN I         035 31.76                              50            167 165 
 MUD  HZ I         035 33.65                                            167 165 
 MUD  HZ  AML      035 38.76        10.4 0.48                           167 165 
 STAV SZ EP        035 14.73   48                         55    0.4310  198 306 
 STAV SZ EPg       035 16.09                              91   -0.3510  198 306 
 STAV SZ ESg       035 38.36                              91   -0.8010  198 306 
 STAV SZ  AML      035 40.16        27.8 0.14                           198 306 
 KONO BZ EP        035 14.75  149                         55   -0.3310  204  18 
 KONO BZ ES        035 37.49                              55    0.6910  204  18 
 KONO BZ  AML      035 45.49        52.3 0.66                           204  18 
 BLS5 SZ EP        035 14.98  100                         55   -0.2510  205 326 
 BLS5 SZ EPg       035 18.19                              91    0.6610  205 326 
 BLS5 SZ ESg       035 41.77                              91    0.7010  205 326 
 BLS5 SZ  AML      035 48.47        11.4 0.27                           205 326 
 KMY  SZ EP        035 18.73  100                         55   -0.3910  237 309 
 KMY  SZ ESg       035 48.41                              91   -0.9810  237 309 
 KMY  SZ  AML      035 53.47        13.3 0.49                           237 309 
 ODD1 SZ EP        035 18.86  105                         55   -1.5810  247 335 
 ODD1 SZ ESg       035 50.95                              91   -1.1410  247 335 
 ODD1 SZ  AML      035 55.73        21.1 0.41                           247 335 
 EGD  SZ EP        035 29.10  112                         55   -0.6110  322 326 
 EGD  SZ ESG       036 12.27                              91    0.4110  322 326 
 EGD  SZ  AML      036 16.66         4.9 0.35                           322 326 
 BER  SZ ESG       036 13.80                              91    0.1710  329 328 
 BER  SZ  AML      036 20.55         5.3 0.37                           329 328 
 ASK  SZ EP        035 31.71  137                         55   -0.5110  342 328 
 ASK  SZ ESG       036 16.39                              91   -0.7910  342 328 
 ASK  SZ  AML      036 24.09         3.7 0.40                           342 328 
 HYA  SZ ESg       036 31.37                              90    2.9310  385 341 
 HYA  SZ  AML      036 35.25        10.5 0.48                           385 341 
 HFS  SZ  Pn      0035 37.80                  229.8  7.9  55 -2-0.2010  389  48 
 HFS  SZ  Sn      0036 16.75                  231.0  4.3  55 -1 0.0710  389  48 
 FOO  SZ ESg       036 48.09                              90    1.5510  454 336 
 FOO  SZ  AML      036 50.96         6.0 0.55                           454 336 
 DOMB SZ ESg       036 50.06                              90    0.4410  465   4 
 DOMB SZ  AML      036 55.40         6.7 0.29                           465   4 
 BSD  HZ EP        035 51.64                              53   -0.3410  504 125 
 BSD  HN I         036 38.99                              49            504 125 
 BSD  HN ES        036 40.04                              53   -0.9610  504 125 
 BSD  HN  AML      036 45.51         7.1 0.86                           504 125 
 FIA0 SZ  Pn      0037 00.42                  252.2  9.1  55 -3-1.3110 1063  61 
 FIA0 SZ  Sn      0038 41.87                  254.4  5.1  55 -1-0.5010 1063  61 
                                                                                
 2003 1212 0315  6.7 L  59.858   6.521  0.0  BER 10 0.9 1.3LBER 1.1CBER        1
 GAP= 88        2.44       3.8     8.5  9.3  0.4575E+01 -0.2646E+02 -0.5391E+01E
 ACTION:UPD 10-11-08 08:02 OP:alk  STATUS:               ID:20031212031506 L   I
 2003-12-12-0315-23S.FOO___003                                                 6
 2003-12-12-0315-08S.HYA___003                                                 6
 2003-12-12-0314-42S.KMY___003                                                 6
 2003-12-12-0314-27S.ODD___003                                                 6
 2003-12-12-0314-46S.RND___001                                                 6
 2003-12-12-0314-25S.WNN___003                                                 6
 2003-12-12-0314-35S.BLS___003                                                 6
 2003-12-12-0314-02S.KONO__003                                                 6
 STAT SP IPHASW D HRMM SECON CODA AMPLIT PERI AZIMU VELO AIN AR TRES W  DIS CAZ7
 ODD1 SZ EP        315  6.28    7                         95   -1.7610 8.41  45 
 ODD1 SZ IP     C  315  7.20                              95   -0.8410 8.41  45 
 ODD1 SZ ES        315  8.14                              95   -0.9010 8.41  45 
 ODD1 SZ  AML      315  8.81       332.4 0.09                          8.41  45 
 BLS5 SZ EP        315 14.84   57                         91    0.3310 48.6 184 
 BLS5 SZ ES        315 20.54                              91    0.2310 48.6 184 
 BLS5 SZ  AML      315 21.43         9.9 0.24                          48.6 184 
 EGD  SZ EP        315 20.21   75                         90   -0.2910 85.7 303 
 EGD  SZ ES        315 30.34                              90   -0.3810 85.7 303 
 EGD  SZ  AML      315 30.92         3.1 0.22                          85.7 303 
 BER  SZ EP        315 20.44   42                         90   -0.4710 88.2 312 
 BER  SZ ES        315 31.25                              90   -0.1910 88.2 312 
 BER  SZ  AML      315 31.62         4.1 0.21                          88.2 312 
 RUND SZ EP        315 20.94   75                         90   -0.1210 89.1 315 
 RUND SZ ES        315 31.37                              90   -0.3310 89.1 315 
 RUND SZ  AML      315 32.29        19.5 0.28                          89.1 315 
 ASK  SZ EP        315 22.55   56                         90   -0.4810  101 314 
 ASK  SZ ES        315 34.57                              90   -0.5610  101 314 
 ASK  SZ  AML      315 34.84         5.7 0.28                           101 314 
 KMY  SZ IP     C  315 23.04   47                         90   -0.2310  103 225 
 KMY  SZ ES        315 35.05                              90   -0.4910  103 225 
 KMY  SZ  AML      315 35.19        11.6 0.16                           103 225 
 HYA  SZ EP        315 31.09   52                         70    0.8310  147 353 
 HYA  SZ ES        315 48.17                              70    0.4610  147 353 
 HYA  SZ  AML      315 51.26         6.2 0.27                           147 353 
 KONO BZ EP        315 33.98   91                         50    0.1710  175  96 
 KONO BZ ES        315 54.62                              50    0.7310  175  96 
 KONO BZ  AML      315 55.29        61.2 0.37                           175  96 
 FOO  SZ EP        315 40.53   59                         50    2.3310  210 338 
 FOO  SZ ES        316  3.48                              50    1.9510  210 338 
 FOO  SZ  AML      316  5.89         6.1 0.43                           210 338 
                                                                                
 2004  123 0640 58.9 L  56.867   6.557 15.0F BER 11 1.2 2.0LBER 2.8CBER        1
 GAP=236        2.67      11.4    27.9  0.0  0.2550E+03  0.4315E+04 -0.1908E+03E
 Locates to 0 km depth. Fixed at 15 km, mbs.                                   3
 ACTION:UP  10-11-08 10:44 OP:alk  STATUS:               ID:20040123064059 L   I
 2004-01-23-0640-56S.KMY___003                                                 6
 2004-01-23-0641-03S.ODD___003                                                 6
 2004-01-23-0640-58S.BLS___003                                                 6
 2004-01-23-0642-05S.MOL___006                                                 6
 2004-01-23-0637-52S.KONO__003                                                 6
 2004-01-23-0640-50S.WNN___003                                                 6
 2004-01-23-0640-59S.FOO___003                                                 6
 STAT SP IPHASW D HRMM SECON CODA AMPLIT PERI AZIMU VELO AIN AR TRES W  DIS CAZ7
 MUD  HZ IP        641 23.21                              55   -0.3710  167 105 
 MUD  HN IS        641 39.82                              55   -1.9810  167 105 
 KMY  SZ EP        641 36.72  130                         55    0.0910  272 344 
 KMY  SZ ES        642  3.81                              55   -0.7010  272 344 
 KMY  SZ  AML      642 17.53        15.7 0.42                           272 344 
 BLS5 SZ EP        641 38.48  139                         55    0.1610  285 359 
 BLS5 SZ ES        642  7.31                              55   -0.1510  285 359 
 BLS5 SZ  AML      642 24.27        19.5 0.40                           285 359 
 ODD1 SZ EP   9    641 43.39  158                         55   -1.70 0  339   1 
 ODD1 SN ES        642 16.62                              50   -0.9210  339   1 
 ODD1 SZ  AML      642 36.72        20.2 0.54                           339   1 
 KONO BZ EP   9    641 52.61  173                         55    5.27 0  358  29 
 KONO BZ ES        642 29.17                              55    0.7510  358  29 
 KONO BZ  AML      642 34.52        16.0 0.70                           358  29 
 COP  HZ EP        641 53.74                              55    2.7810  387 108 
 COP  HN ES   4    642 51.89                              55   22.44 0  387 108 
 EGD  SZ EP        641 50.46  186                         55   -0.5110  387 349 
 EGD  SZ  AML      642 47.95         4.4 0.65                           387 349 
 ASK  SZ EP        641 53.07  182                         55   -0.8210  411 349 
 ASK  SZ ES        642 33.05                              55   -1.5010  411 349 
 ASK  SZ  AML      642 58.32         4.3 0.41                           411 349 
 FOO  SE ES        643  1.81                              53    1.1910  534 351 
 FOO  SZ  AML      643 26.80         8.6 0.68                           534 351 
 BSD  HZ IP        642 11.37                              53   -0.2110  556 107 
 BSD  HZ I         642 17.01                                            556 107 
 MOL  SZ EP        642 21.96  197                         53    0.5010  638   5 
 MOL  SN ES        643 24.05                              53    1.5310  638   5 
 MOL  SZ  AML      644  7.43         7.0 0.97                           638   5 
                                                                                
 2004  428 0127 57.3 L  58.205   7.664 12.1  BER 13 0.5 1.7LBER         2.4LNAO1
 GAP=244        2.45       8.9     8.2  8.3 -0.6016E-01 -0.9802E+01  0.2182E+02E
 ACTION:UP  10-11-08 10:44 OP:alk  STATUS:               ID:20040428012757 L   I
 2004-04-28-0129-04S.FOO___003                                                 6
 2004-04-28-0128-53S.HYA___003                                                 6
 2004-04-28-0127-43S.KMY___003                                                 6
 2004-04-28-0128-09S.ODD___003                                                 6
 2004-04-28-0128-31S.RND___001                                                 6
 2004-04-28-0128-29S.WNN___003                                                 6
 2004-04-28-0127-41S.BLS___003                                                 6
 2004-04-28-0124-51S.KONO__003                                                 6
 2004-04-28-0127-52S.STA___003                                                 6
 2004-04-28-0127-21S.SNART_003                                                 6
 2004 0428 0127 57.6 L  58.271   7.779 24.0  NAO  2 0.8                 2.4LNAO1
                 5.6     0.1     0.2   34.1                                    5
     535  SOUTHERN NORWAY                                                      3
 STAT SP IPHASW D HRMM SECON CODA AMPLIT PERI AZIMU VELO AIN AR TRES W  DIS CAZ7
 SNARTSZ EP        128  2.61                             100    0.0110 30.5 299 
 SNARTSZ ES        128  6.40                             100   -0.1210 30.5 299 
 SNARTSZ  AML      128  6.53       138.1 0.23                          30.5 299 
 STAV SZ EP        128 18.15                              55   -0.7410  140 306 
 STAV SZ ES        128 33.69                              55   -1.1910  140 306 
 STAV SZ  AML      128 34.46        20.0 0.14                           140 306 
 BLS5 SZ EP        128 21.14                              55    0.6510  153 333 
 BLS5 SE ES        128 37.03                              55   -0.6210  153 333 
 BLS5 SZ  AML      128 38.64        17.9 0.36                           153 333 
 KMY  SZ EP        128 24.03                              55    0.3010  179 309 
 KMY  SZ ES        128 44.17                              55    0.8710  179 309 
 KMY  SZ  AML      128 45.08        12.2 0.33                           179 309 
 KONO BN ES        128 48.40                              55    1.4910  196  34 
 ODD1 SZ ES        128 49.05                              55    1.3110  199 343 
 EGD  SZ ESg       129  8.73                              90   -0.6110  269 330 
 RUND SZ ESg       129 12.36                              90    0.4210  279 333 
 ASK  SZ ESg       129 13.94                              90   -0.9710  290 332 
 HYA  SN ESg       129 29.00                              90    0.8710  340 346 
 NB2  SZ  Pn      0128 47.70                              55   -0.3110  374  31 
 NB2  SZ  Lg      0129 38.92                              50   -2.2310  374  31 
 FOO  SZ ESg       129 45.93                              90    0.6110  405 340 
 HFS  SZ  Pn      0128 52.10                  246.0  7.9  55  5 0.1310  406  56 
 HFS  SZ  Sn      0129 32.35                  240.4  5.1  55  0-0.0910  406  56 
 HFS  SZ  Lg      0129 50.35                  233.4  3.9   0 -6 0.2210  406  56 
                                                                                
 2004  5 2 1924 53.8 L* 59.889   6.264  5.0F BER 15 0.9 1.3LBER 1.4CBER 2.0LNAO1
