 2005  324 0241 38.3 L                       BER        2.3WBER                1
 SPEC AVERAGE  MO 12.6 ST  4.8 OM  2.7 f0 7.65 R0.1696 AL 2.34 WI 20.0 MW  2.3 3
 SPEC SD       MO  0.2 ST  3.5 OM  1.4 f0 1.24 R0.0306 AL      WI      MW  0.1 3
 GAP=126        1.71       2.2     5.0  6.4  0.1819E+01 -0.1274E+01 -0.2056E+01E
 SPEC EGD S  Z MO 12.4 ST  3.4 OM  1.3 f0 8.26 R0.1525 AL 1.98 WI 17.1 MW  2.2 3
 SPEC EGD S  Z T 24159 K 0.000 GD 93.9 VS 3.60 DE 3.00 Q0440.0 QA 0.70 VS 3.60 3
 SPEC BER S  Z MO 12.5 ST  1.4 OM  1.3 f0 5.93 R0.2125 AL 2.38 WI 20.2 MW  2.3 3
 SPEC BER S  Z T 242 2 K 0.000 GD  104 VS 3.60 DE 3.00 Q0440.0 QA 0.70 VS 3.60 3
 SPEC FOO S  Z MO 12.8 ST  9.6 OM  1.3 f0 8.77 R0.1437 AL 2.66 WI 22.8 MW  2.5 3
 SPEC FOO S  Z T 24237 K 0.000 GD  221 VS 3.60 DE 3.00 Q0440.0 QA 0.70 VS 3.60 3
 ACTION:UP  10-11-08 14:12 OP:alk  STATUS:               ID:20050324024138 L   I
 2005-03-24-0241-34S.FOO___003                                                 6
 2005-03-24-0241-29S.HYA___003                                                 6
 2005-03-24-0241-04S.KMY___003                                                 6
 2005-03-24-0241-47S.MOL___003                                                 6
 2005-03-24-0241-09S.ODD___003                                                 6
 2005-03-24-0241-14S.RND___001                                                 6
 2005-03-24-0241-26S.SUE___006                                                 6
 2005-03-24-0241-12S.WNN___003                                                 6
 2005-03-24-0241-06S.BLS___003                                                 6
 2005-03-24-0240-09S.KONO__003                                                 6
 2005-03-24-0241-53S.DOM___001                                                 6
 2005-03-24-0241-07S.STA___003                                                 6
 2005-03-24-0241-24S.SNART_003                                                 6
 2005-03-24-0240-52X.OSGS__003                                                 6
 2005 0324 0241 34.9 L  59.367   5.741       NAO  3 1.0                 2.5LNAO1
                 3.9     0.2     0.3   -1.0                                    5
     535  SOUTHERN NORWAY                                                      3
 STAT SP IPHASW D HRMM SECON CODA AMPLIT PERI AZIMU VELO AIN AR TRES W  DIS CAZ7
 KMY  SZ EP        241 44.68   88                         97    0.0710 37.3 219 
 KMY  SZ ES        241 48.74                              97   -0.5610 37.3 219 
 KMY  SZ  AML      241 49.89       254.9 0.14                          37.3 219 
 BLS5 SZ EP        241 47.02  111                         93    1.0910 45.9  95 
 BLS5 SZ ES        241 52.83                              93    1.2310 45.9  95 
 BLS5 SZ  AML      241 53.26       158.2 0.10                          45.9  95 
 STAV SZ EP        241 48.00   76                         92    0.1210 59.0 177 
 STAV SZ ES        241 55.28                              92    0.3010 59.0 177 
 STAV SZ  AML      241 55.88       196.2 0.18                          59.0 177 
 ODD1 SZ IP     C  241 49.30  118                         91   -0.9210 74.2  47 
 ODD1 SZ ESg       241 58.05                              91   -1.0110 74.2  47 
 ODD1 SZ  AML      241 58.47       499.9 0.16                          74.2  47 
 OSGS SN EP        241 51.24                              91   -0.1410 82.1 353 
 OSGS SN ES        242  0.61                              91   -0.4710 82.1 353 
 EGD  SZ EP        241 52.86  137                         91   -0.1710 93.0 345 
 EGD  SZ ES        242  3.81                              91   -0.1410 93.0 345 
 EGD  SZ  AML      242  5.18       123.8 0.37                          93.0 345 
 BER  SZ EP        241 54.72   95                         91    0.0210  104 350 
 BER  SZ ES        242  6.70                              91   -0.1510  104 350 
 BER  SZ  AML      242  8.72        77.2 0.32                           104 350 
 RUND SZ EP        241 55.29  122                         91    0.1110  107 352 
 RUND SZ ES        242  7.64                              91   -0.0510  107 352 
 RUND SZ  AML      242  9.29       115.6 0.24                           107 352 
 ASK  SZ EP        241 56.39  122                         90   -0.1810  116 348 
 ASK  SZ ES        242 10.05                              90   -0.0610  116 348 
 SNARTSZ EP   9    242  4.73   89                         55    3.18 0  154 144 
 SNARTSZ ESg       242 22.89                                   -0.3810  154 144 
 SNARTSZ  AML      242 23.47       324.7 0.22                           154 144 
 SUE  SZ EP        242  4.94   84                         55   -0.3310  184 345 
 SUE  SZ EPg       242  6.96                              90    0.1110  184 345 
 SUE  SZ ESg       242 28.07                              90    0.0710  184 345 
 SUE  SZ  AML      242 28.86        93.3 0.28                           184 345 
 HYA  SZ EP        242  6.91  118                         55    0.7010  192   9 
 HYA  SN ESg       242 32.04                              90    2.0410  192   9 
 HYA  SZ  AML      242 32.82        54.7 0.26                           192   9 
 KONO BZ EP        242 10.47  157                         55    0.2310  224  83 
 KONO BZ ESg       242 38.44                              90   -0.1010  224  83 
 FOO  SZ EP        242 11.66  124                         55   -0.5510  240 352 
 FOO  SZ ESg       242 42.85                              90    0.1210  240 352 
 FOO  SZ  AML      242 44.23        49.7 0.10                           240 352 
 DOMB SZ E         242 31.48                                            347  31 
 NB2  SZ  Pn      0242 26.07                              55   -0.4210  355  58 
 NB2  SZ  Pg      0242 32.82                              90    0.1410  355  58 
 NB2  SZ  Lg      0243 16.72                             147   -0.0210  355  58 
 MOL  SZ EP        242 27.20  207                         55   -0.0310  361  16 
 MOL  SZ ES        243  3.59                              55    0.1310  361  16 
 HFS  SZ  Pn      0242 39.48                  257.2  9.3  55 -6 0.2410  457  77 
 HFS  SZ  Pg      0242 48.14                  259.1  7.1  90 -4-0.1210  457  77 
 HFS  SZ  Lg      0243 43.94                  264.2  3.7  33  0-1.4110  457  77 
 FIA0 SZ  Lg      0246 55.25                  267.4  3.8  33  0 0.11 9 1141  70 
                                                                                
 2005  723 1705 39.2 L  57.144   6.900 15.0F BER 28 0.6 2.2LBER 2.3CBER 2.2LNAO1
 GAP=180        1.87       6.1     8.0  0.0 -0.5426E+01  0.2380E+02  0.1510E+01E
 Depth calculated to 31, fixed to 15 km, alk                                   3
 ACTION:UP  10-11-08 14:13 OP:alk  STATUS:               ID:20050723170539 L   I
 2005-07-23-1705-34S.KMY___003                                                 6
 2005-07-23-1706-12S.ODD___003                                                 6
 2005-07-23-1706-14S.WNN___003                                                 6
 2005-07-23-1705-38S.BLS___003                                                 6
 2005-07-23-1704-48S.KONO__003                                                 6
 2005-07-23-1705-51S.STA___003                                                 6
 2005-07-23-1705-21S.SNART_003                                                 6
 2005 0723 1705 43.1 L  57.607   7.212       NAO  3 1.4                 2.2LNAO1
                 3.4     0.2     0.2   -1.0                                    5
     534  NORTH SEA                                                            3
 2005  723 1705 41.6 L  57.111   6.462 15.0F BGS 16 0.4                 2.9LBGS1
 2005-07-23-1705-49S.LEQ___014                                                 3
 2005-07-23-1705-50S.LNSD__015                                                 3
 2005-07-23-1705-49S.ORQ___014                                                 3
 2005-07-23-1705-49S.MIQ___015                                                 3
 2005-07-23-1705-49S.MOQ___014                                                 3
 2005-07-23-1705-50S.SHSD__015                                                 3
 2005-07-23-1707-51S.MOQ___014                                                 3
 2005-07-23-1706-47S.BCV___018                                                 3
 SKAGERRAK                                                                    23
                                                                               3
 STAT SP IPHASW D HRMM SECON CODA AMPLIT PERI AZIMU VELO AIN AR TRES W  DIS CAZ7
 SNARTSZ EP       17 6  0.66   97                         55    0.8010  134   8 
 SNARTSZ ES       17 6 15.63                              55    0.4910  134   8 
 SNARTSZ  AML     17 6 16.22       198.8 0.20                           134   8 
 STAV SZ EP       17 6  9.96                              55    0.5110  212 341 
 STAV SZ ES       17 6 31.59                              55   -0.2410  212 341 
 STAV SZ  AML     17 6 33.28        34.2 0.12                           212 341 
 KMY  SZ EP       17 6 14.59  138                         55    0.4710  249 338 
 KMY  SZ ES       17 6 39.19                              55   -0.7610  249 338 
 KMY  SZ  AML     17 6 40.70        18.8 0.13                           249 338 
 BLS5 SZ EP       17 6 17.01  132                         55    2.1010  255 354 
 BLS5 SN ES       17 6 42.47                              55    1.1410  255 354 
 ODD1 SZ EP       17 6 21.86   94                         55    0.2910  309 357 
 ODD1 SN ES       17 6 51.80                              55   -1.1110  309 357 
 KONO BZ EP       17 6 23.84  137                         55    0.8510  321  28 
 KONO BZ ES       17 6 55.83                              55    0.4410  321  28 
 EGD  SZ IP     C 17 6 28.54  109                         55    0.4710  362 345 
 EGD  SZ ES       17 7  4.30                              55    0.0710  362 345 
 BER  SZ EP       17 6 29.79                              55    0.4110  372 347 
 ASK  SZ EP       17 6 31.28  119                         55    0.3210  385 346 
 ASK  SZ ES       17 7  8.20                              55   -1.0510  385 346 
 NB2  SZ  Pn      1706 45.69                  209.5  8.2  55 -1 0.4410  499  28 
 NB2  SZ  Sn      1707 33.60                  207.7  4.6  55 -3-0.5310  499  28 
 HFS  SZ  Pn      1706 47.62                  237.8  7.5  55  5 0.3410  516  47 
 HFS  SZ  Sn      1707 36.62                  233.8  4.4  55  1-1.0410  516  47 
 LRW  SZ EP   3   17 6 54.36                              53    0.27 2  575 309 
 LRW  SE ES   3   17 7 47.56                              53   -1.94 2  575 309 
 LRW  SE  AML     17 7 50.40         3.2 0.24                           575 309 
 LRW  SN  AML     17 7 54.10         3.1 0.57                           575 309 
 LCP  SZ EP   3   17 6 55.35                              53   -0.28 2  588 246 
 WAL  SZ EP   3   17 6 58.11                              53    0.66 2  603 309 
 WAL  SZ ES       17 7 54.29                              53   -1.0610  603 309 
 MCD  SZ EP   3   17 6 59.30                              53    0.64 2  612 279 
 MCD  SN ES   3   17 7 54.78                              53   -2.68 2  612 279 
 OHO  SZ EP   3   17 7  1.36                              53    0.79 2  628 292 
 BTA  SZ EP   3   17 7  2.90                              53    0.08 2  647 251 
 BBH  SZ EP   2   17 7  3.19                              53   -0.03 5  650 254 
 BBH  SZ ES   3   17 8  3.48                              53   -1.91 2  650 254 
 ORE  SZ EP   3   17 7  3.26                              53   -0.12 2  652 288 
 ORE  SN ES   3   17 8  2.67                              53   -2.99 2  652 288 
 ORE  SN  AML     17 8  6.47         5.5 0.16                           652 288 
 ORE  SE  AML     17 8  7.56         5.5 0.18                           652 288 
 EAU  SZ EP   3   17 7  4.21                              53    0.59 2  653 262 
 BDL  SZ EP   3   17 7  5.29                              53    0.09 2  667 251 
 MVH  SZ ES   3   17 8  7.06                              53   -2.21 2  669 282 
 BHH  SZ EP   3   17 7  5.36                              53   -0.12 2  669 254 
 BHH  SE ES   3   17 8  6.95                              53   -2.37 2  669 254 
 BHH  SN  AML     17 8 10.52         7.9 0.37                           669 254 
 BHH  SE  AML     17 8 14.62         7.1 0.13                           669 254 
 LHO  SZ EP   3   17 7  7.09                              53   -0.26 2  684 238 
 BBO  SZ EP   3   17 7  7.62                              53   -0.13 2  688 251 
 BBO  SN ES   3   17 8 10.46                              53   -2.81 2  688 251 
 BBO  SN  AML     17 8 15.81         4.2 0.32                           688 251 
 BBO  SE  AML     17 8 17.51         3.8 0.27                           688 251 
 BWH  SZ EP   2   17 7  7.84                              51   -0.30 5  691 256 
 RRR  SN ES   3   17 8 26.35                              51   -2.74 2  765 281 
 RRR  SN  AML     17 8 31.17         4.8 0.29                           765 281 
 FIA0 SZ  Pn      1708 10.10                  248.5  9.8  55 -5-0.59 9 1188  58 
 FIA0 SZ  Sn      1710 00.52                  241.1  5.7  55-13-2.26 9 1188  58 
                                                                                
 2005  728 2029 58.3 L* 59.816   5.131 14.0F BER 16 0.6 2.5LBER 2.3CBER 2.5LNAO1
 2005  728 2029 58.3 L*                      BER        2.5WBER                1
 SPEC AVERAGE  MO 12.8 ST  6.2 OM  1.7 f0 7.28 R0.1978 AL 3.17 WI  6.0 MW  2.5 3
 SPEC SD       MO  0.2 ST  5.6 OM  0.3 f0 2.64 R0.0727 AL      WI      MW  0.2 3
 GAP=177        2.43       3.1     9.3  0.0  0.7203E+01 -0.2262E+02  0.2531E+02E
 SPEC DOMBS  Z MO 13.2 ST  1.4 OM  1.5 f0 3.45 R0.3652 AL 1.85 WI  8.1 MW  2.7 3
 SPEC DOMBS  Z T203125 K 0.000 GD  331 VS 3.60 DE 3.00 Q0440.0 QA 0.70 VS 3.60 3
 SPEC MOL S  Z MO 12.9 ST  3.5 OM  1.2 f0 5.92 R0.2128 AL 1.85 WI 13.3 MW  2.5 3
 SPEC MOL S  Z T203134 K 0.000 GD  333 VS 3.60 DE 3.00 Q0440.0 QA 0.70 VS 3.60 3
 SPEC SUE S  Z MO 12.5 ST 10.1 OM  1.2 f0 11.2 R0.1125 AL 5.12 WI  5.4 MW  2.3 3
 SPEC SUE S  Z T203034 K 0.000 GD  140 VS 3.60 DE 3.00 Q0440.0 QA 0.70 VS 3.60 3
 SPEC STAVS  Z MO 12.7 ST  1.6 OM  1.5 f0 5.34 R0.2360 AL 1.33 WI  3.2 MW  2.4 3
 SPEC STAVS  Z T203026 K 0.000 GD  103 VS 3.60 DE 3.00 Q0440.0 QA 0.70 VS 3.60 3
 SPEC ODD1S  Z MO 12.5 ST  9.2 OM  1.4 f0 11.0 R0.1145 AL 4.76 WI  4.0 MW  2.3 3
 SPEC ODD1S  Z T203019 K 0.000 GD 85.7 VS 3.60 DE 3.00 Q0440.0 QA 0.70 VS 3.60 3
 SPEC HYA S  Z MO 12.7 ST 10.7 OM  1.3 f0 10.1 R0.1248 AL 5.01 WI  9.4 MW  2.4 3
 SPEC HYA S  Z T203043 K 0.000 GD  161 VS 3.60 DE 3.00 Q0440.0 QA 0.70 VS 3.60 3
 SPEC EGD S  Z MO 12.9 ST 21.3 OM  1.3 f0 10.7 R0.1178 AL 2.53 WI  4.4 MW  2.5 3
 SPEC EGD S  Z T203012 K 0.000 GD 52.8 VP 6.20 DE 3.00 Q0440.0 QA 0.70 VS 3.60 3
 SPEC BER S  Z MO 13.1 ST  5.0 OM  1.4 f0 5.67 R0.2222 AL 2.30 WI  5.9 MW  2.7 3
 SPEC BER S  Z T203015 K 0.000 GD 65.8 VP 6.20 DE 3.00 Q0440.0 QA 0.70 VS 3.60 3
 SPEC SNARS  Z MO 13.2 ST  3.5 OM  1.7 f0 4.74 R0.2658 AL 3.14 WI  3.3 MW  2.7 3
 SPEC SNARS  Z T203052 K 0.000 GD  203 VS 3.60 DE 3.00 Q0440.0 QA 0.70 VS 3.60 3
 SPEC BLS5S  Z MO 12.6 ST  1.6 OM  1.5 f0 5.66 R0.2226 AL 2.96 WI  3.9 MW  2.4 3
 SPEC BLS5S  Z T203022 K 0.000 GD 87.7 VS 3.60 DE 3.00 Q0440.0 QA 0.70 VS 3.60 3
 SPEC FOO S  Z MO 12.8 ST  2.4 OM  1.3 f0 5.74 R0.2195 AL 2.48 WI  6.2 MW  2.5 3
 SPEC FOO S  Z T203050 K 0.000 GD  199 VS 3.60 DE 3.00 Q0440.0 QA 0.70 VS 3.60 3
 SPEC KMY S  Z MO 12.6 ST  4.4 OM  1.6 f0 7.90 R0.1595 AL 4.71 WI  4.9 MW  2.4 3
 SPEC KMY S  Z T203016 K 0.000 GD 70.0 VS 3.60 DE 3.00 Q0440.0 QA 0.70 VS 3.60 3
 Depth fixed to 14 km using local model and rmsdepth                           3
 Probl. timingerror on Molde                                                   3
 ACTION:UP  10-11-08 14:13 OP:alk  STATUS:               ID:20050728202958 L   I
 2005-07-28-2029-58.MACRO                                                 MACRO3
 Phonecalls from Stord and Haugesund                                           3
 No questionnaires sent, alk                                                   3
 2005-07-28-2027-59S.KMY___003                                                 6
 2005-07-28-2028-59S.FOO___003                                                 6
 2005-07-28-2029-00S.BLS___003                                                 6
 2005-07-28-2028-59S.SNART_003                                                 6
 2005-07-28-2029-25S.WNN___003                                                 6
                            3 MM                                        BER    2
 2005-07-28-2028-59S.HYA___003                                                 6
 2005-07-28-2028-59S.ODD___003                                                 6
 2005-07-28-2029-33S.STA___003                                                 6
 2005-07-28-2029-48S.FOO___003                                                 6
 2005-07-28-2029-28S.KMY___003                                                 6
 2005-07-28-2029-30S.ODD___003                                                 6
 2005-07-28-2028-39S.KONO__003                                                 6
 2005-07-28-2029-44S.HYA___003                                                 6
 2005-07-28-2029-33S.STA___003                                                 6
 2005-07-28-2029-39S.SUE___006                                                 6
 2005-07-28-2028-59S.MOL___003                                                 6
 2005-07-28-2030-09S.DOM___001                                                 6
