 1996  6 6 0648 29.8 L  62.652   4.940 15.0  TES 13 1.4 3.0CTES 2.9LTES 3.0LNAO1
 GAP=270        6.09      21.8    56.5 36.3 -0.8879E+03  0.1318E+04 -0.5766E+03E
 1996  6 6 0648 30.5 L                       BER        2.8WBER                1
 ACTION:UPD 99-09-08 14:30 OP:kk   STATUS:               ID:19960606064829 L   I
 1996-06-06-0647-46S.TEST__011                                                 6
 STAT SP IPHASW D HRMM SECON CODA AMPLIT PERI AZIMU VELO SNR AR TRES W  DIS CAZ7
 FOO  SZ EP     C  648 48.47  136                                0.110  118 177 
 FOO  SZ ESG       649  2.67                                     0.610  118 177 
 FOO  SZ E         649  2.89       426.4  0.3                           118 177 
 MOL  SZ EP     C  648 49.97  144                               -0.510  134  93 
 MOL  SZ EPG    C  648 50.90                                     0.010  134  93 
 MOL  AZ E         649  5.86                                            134  93 
 MOL  SZ ESG       649  5.87                                    -0.510  134  93 
 MOL  SZ E         649  6.98       328.6  0.6                           134  93 
 HYA  SZ E         649 19.17       530.6  0.2                           178 158 
 SUE  SZ ESG       649 18.43                                     0.510  178 183 
 HYA  SZ EP        648 56.78  135                                0.910  178 158 
 HYA  SZ IP     D  648 56.78                                     0.910  178 158 
 HYA  SZ EPG    D  648 57.56                                     0.110  178 158 
 HYA  SZ ESG       649 18.07                                     0.110  178 158 
 SUE  AZ E         649 19.27                                            178 183 
 SUE  SZ E         649 19.59       197.4  0.2                           178 183 
 ASK  SZ EP        649  2.94  183                               -1.110  243 177 
 ASK  SZ ESG       649 34.72                                    -0.410  243 177 
 BER  SZ EP     C  649  7.56                                     2.310  254 175 
 BER  SZ IP     C  649  7.56                                            254 175 
 BER  SZ ESG       649 36.61                                    -1.310  254 175 
 BER  SZ E         649 39.15       102.2  0.4                           254 175 
 EGD  SZ EP     D  649  5.76                                    -1.110  266 177 
 EGD  SZ EPG    D  649  7.05                                    -3.710  266 177 
 EGD  SZ I         649  7.05                                            266 177 
 EGD  SZ ESG       649 40.53                                    -0.610  266 177 
 EGD  SZ E         649 46.54        95.6  0.4                           266 177 
 ODD1 SZ EP        649 15.91  180                                2.510  319 163 
 ODD1 SZ I         649 21.72                                            319 163 
 ODD1 SZ ESG       649 57.24                                     2.210  319 163 
 ODD1 SZ E         650  2.12        84.5  0.2                           319 163 
 BLS5 SZ EP        649 19.99  202                                0.310  369 167 
 BLS5 SZ ESG       650  9.17                                     0.810  369 167 
 BLS5 SZ E         650 13.30        49.3  0.4                           369 167 
 KMY  SZ EP        649 20.93                                    -0.710  385 177 
 NRA0 SZ  Pn      0649 24.03                  309.6  8.5 139  5 -0.610  409 119 
 NRA0 SZ  Pg      0649 32.60                  305.6  7.285.2  1  0.110  409 119 
 NRA0 SZ  Lg      0650 22.05                  302.0  4.016.0 -1 -1.5 0  409 119 
 KONO BN EP   3    649 32.65  133                                6.9 2  418 141 
 KONO BN ESG       650 20.03                                    -1.210  418 141 
 HFS  SZ  Pn      0649 41.41                  266.8  8.711.7-37 -0.110  545 117 
 HFS  SZ  Lg      0650 58.09                  293.0  3.2 8.3-11 -3.1 0  545 117 
                                                                                
 1996  6 7 1325 28.5 L  59.842   5.070  1.4  TES 12 1.0 2.2CTES 1.9LTES 2.0LNAO1
 GAP=181        3.12       5.1    18.2 10.9  0.3748E+02  0.2971E+02 -0.1004E+02E
 1996  6 7 1325 29.1 L*                      BER        2.0WBER                1
 ACTION:UPD 99-09-08 14:30 OP:kk   STATUS:               ID:19960607132528 L   I
 1996-06-07-1324-51S.TEST__009                                                 6
 SYNT: MODEL--:     THICK        VP        VS      DENS        QP        QS    3
 SYNT: MODEL--:    12.000     6.200     3.563     2.600     0.000     0.000    3
 SYNT: MODEL--:    11.000     6.600     3.793     2.800     0.000     0.000    3
 SYNT: MODEL--:     8.000     7.100     4.080     3.000     0.000     0.000 B  3
 SYNT: MODEL--:    19.000     8.050     4.626     3.200     0.000     0.000 N  3
 SYNT: MODEL--:    30.000     8.250     4.741     3.400     0.000     0.000    3
 SYNT: MODEL--:    50.000     8.500     4.885     3.600     0.000     0.000    3
 SYNT: ST-D-RK:       0.0      45.0      90.0                                  3
 SYNT: DEPTH--:       1.4                                                      3
 SYNT: NPOINTS:       256                                                      3
 SYNT: TIMES--:     TOTAL    60.000   INITIAL     0.000  SY-TRACE    60.000    3
 SYNT: BOUPAR-:     300.0       600     0.001                                  3
 SYNT: PHASES-:        Pg        Sg       PmP       SmS       SmP              3
 SYNT: DT-Tsou:     0.050      .100                                            3
 SYNT: REDVELO:    8.0000                                                      3
 SYNT: COMPON-:    RADIAL                                                      3
 SYNT: STAT-AT:  no                                                            3
 SYNT: NSTAT--:         2------------------------------------------------------3
 SYNT: NEW STAT:---------------------------------------------------------------3
 SYNT: STATION: EGD  S  Z  DISTANC:      48.0                                  3
 SYNT: STATION: EGD        AZIMUTH:      10.0 BAZIMUTH:     190.0              3
 SYNT: NEW STAT:---------------------------------------------------------------3
 SYNT: STATION: KMY  S  Z  DISTANC:      72.0                                  3
 SYNT: STATION: KMY        AZIMUTH:     172.0 BAZIMUTH:     352.4              3
 STAT SP IPHASW D HRMM SECON CODA AMPLIT PERI AZIMU VELO SNR AR TRES W  DIS CAZ7
 EGD  SZ IP     C 1325 35.95   93                               -0.410   48  10 
 EGD  SZ ES       1325 42.03                                    -0.110   48  10 
 BER  SZ IP     C 1325 38.12   55                               -0.410   62  14 
 BER  SZ ES       1325 45.44                                    -0.510   62  14 
 BER  SZ E        1325 46.71        31.7  0.2                            62  14 
 ASK  SZ EP     D 1325 39.59   68                               -0.310   70   6 
 ASK  SZ ES       1325 48.07                                    -0.210   70   6 
 ASK  SZ E        1325 50.90       111.0  0.3                            70   6 
 KMY  SZ IP     C 1325 40.26   62                                0.110   72 172 
 KMY  SZ ES       1325 48.74                                     0.010   72 172 
 KMY  SZ E        1325 48.92        83.6  0.2                            72 172 
 ODD1 SZ IP     D 1325 44.30   95                                1.710   88  84 
 ODD1 SZ ES       1325 54.03                                     0.910   88  84 
 ODD1 SZ E        1325 57.31        42.3  0.1                            88  84 
 BLS5 SZ IP     D 1325 42.91  112                               -0.310   91 120 
 BLS5 SZ ES       1325 53.38                                    -0.710   91 120 
 SUE  SZ IP     C 1325 50.04  101                               -0.410  136 353 
 SUE  SZ EPG      1325 50.92                                     0.410  136 353 
 SUE  SZ ES       1326  6.81                                     0.210  136 353 
 SUE  AZ E        1326  7.29                                            136 353 
 SUE  SZ E        1326  8.14        45.6  0.1                           136 353 
 HYA  SZ EP     C 1325 52.53  115                               -1.110  160  22 
 HYA  SZ I        1325 53.57                                            160  22 
 HYA  SE ES       1326 12.06                                    -0.110  160  22 
 FOO  SZ EP     D 1325 58.85  114                                0.810  196 360 
 FOO  SN ES       1326 19.76                                    -0.210  196 360 
 FOO  SZ E        1326 22.72        26.7  0.3                           196 360 
 MOL  SZ EP       1326 18.31                                     3.310  332  23 
 NRA0 SZ  Pn      1326 19.09                  256.9  6.925.3  0 -0.910  371  72 
 NRA0 SZ  Pg      1326 27.94                  253.0  7.318.7 -3 -0.510  371  72 
 NRA0 SZ  Lg      1327 10.54                  266.6  4.1 6.6  9 -1.1 0  371  72 
 HFS  SZ  Pn      1326 32.36                  270.2  7.410.7  0 -1.410  482  82 
 HFS  SZ  Lg      1327 41.49                  263.1  3.5 3.1 -6 -1.0 0  482  82 
                                                                                
 1996  625 0337 31.7 L  61.656   3.363 14.9  TES 35 1.4 3.0CTES 3.2LTES 3.2LNAO1
                8.64      14.4    34.2 25.6 -0.1029E+03  0.1887E+03 -0.3074E+02E
 1996  625 0337 31.9 L                       BER        3.1WBER                1
     327.2      62.0     -11.2     0                                           3
 ACTION:SPL 99-06-12 15:54 OP:lo   STATUS:               ID:19960625033731     I
 1996-06-25-0336-34S.TEST__032                                                 6
 STAT SP IPHASW D HRMM SECON CODA AMPLIT PERI AZIMU VELO SNR AR TRES W  DIS CAZ7
 FOO  SZ IP        337 46.12  147                                0.210   89  93 
 FOO  SZ IS        337 56.01                                    -0.410   89  93 
 FOO  SZ E         337 58.79      1481.9  0.3                            89  93 
 SUE  SZ IP        337 47.84  157                                0.310  100 131 
 SUE  SZ ES        337 58.95                                    -0.310  100 131 
 SUE  AZ E         337 58.97                                            100 131 
 SUE  SZ E         337 59.32      1243.7  0.5                           100 131 
 OSG  SZ EP   2    337 53.17   78                                1.2 5  132 192 
 OSG  SE ES   2    338  9.32                                     2.3 5  132 192 
 OSG  AN E         338  9.42                                            132 192 
 HYA  SZ IP        337 55.46  154                               -0.110  160 109 
 HYA  SZ ES        338 13.94                                     0.810  160 109 
 HYA  SZ E         338 19.41      1660.5  0.7                           160 109 
 ASK  SZ IP        337 56.28  204                                0.110  165 142 
 BER  SZ IP        337 57.79                                     0.110  177 142 
 EGD  SZ IP        337 58.78  169                                0.310  184 146 
 MOL  SZ IP        338  6.15  248                                0.610  241  63 
 MOL  AZ E         338  6.65                                            241  63 
 MOL  SN ES        338 30.77                                     0.110  241  63 
 MOL  SN E         338 42.68       684.7  0.4                           241  63 
 KMY  SZ IP        338 12.05  131                                0.110  292 158 
 KMY  SN ES        338 40.66                                    -1.110  292 158 
 KMY  SN E         338 42.79       354.2  0.2                           292 158 
 LRW  SZ EP   2   0338 13.79                  241.0         173  1.0 5  299 238 
 LRW  SE ES   3   0338 43.75                  241.0         173  0.6 2  299 238 
 LRW  SN          0338 46.26         87. 0.16 241.0         173         299 238 
 LRW  SE          0338 46.49         88. 0.19 241.0         173         299 238 
 BLS5 SZ IP        338 13.65  230                                0.610  301 144 
 BLS5 SZ ES        338 42.38                                    -1.410  301 144 
 BLS5 SZ E         338 43.82       481.2  0.2                           301 144 
 SAN  SZ EP   2   0338 15.00                  239.0         173  0.9 5  310 236 
 KONO BN EP        338 25.88                                    -0.410  408 121 
 KONO BZ IP        338 26.15                                    -0.110  408 121 
 KONO BN ES        339  5.37                                    -1.310  408 121 
 KONO BZ ES        339  5.62                                    -1.110  408 121 
 KONO BN E         339  7.18        79.2  0.2                           408 121 
 OWE  SZ EP   3   0338 31.19                  237.0         174  1.3 2  437 236 
 NRA0 SZ  Pn      0338 31.04                  293.2  9.0 567  7 -0.710  451 100 
 NRA0 SZ  Sn      0339 15.87                  296.7  4.8 5.7 10 -0.310  451 100 
 NRA0 SZ  Lg      0339 34.54                  280.9  4.210.7 -5 -2.510  451 100 
 OHO  SZ EP   3   0338 36.20                  233.0         173  0.9 2  482 232 
 OBR  SZ EP   2   0338 37.79                  230.0         174  0.8 5  496 230 
 ORE  SZ EP   2   0338 41.59                  232.0         174  1.0 5  526 232 
 ORE  SE          0339 34.63         59. 0.20 232.0         174         526 232 
 ORE  SN          0339 35.68         59. 0.24 232.0         174         526 232 
 MLA  SZ EP   3   0338 41.97                  228.0         174  1.0 2  529 228 
 NSS  SN EP        338 43.13  288                                0.910  539  50 
 NSS  SN ES        339 35.79                                     1.310  539  50 
 MFI  SZ EP   3   0338 44.24                  218.0         175  0.5 2  552 218 
 OTO  SZ EP   2   0338 45.15                  234.0         173  0.8 5  557 234 
 HFS  SZ  Pn      0338 47.52                  287.4  7.9 161 -3 -0.810  585 102 
 HFS  SZ  Sn      0339 43.36                  284.1  4.4 7.6 -6 -1.710  585 102 
 HFS  SZ  Lg      0340 15.43                  298.8  3.6 5.6  8  1.210  585 102 
 MCD  SZ EP   2   0338 48.65                  222.0         175  0.6 5  587 222 
 MCD  SE ES   3   0339 43.99                  222.0         175 -0.5 2  587 222 
 MCD  SE          0339 47.64         56. 0.20 222.0         175         587 222 
 MCD  SN          0339 47.98         68. 0.23 222.0         175         587 222 
 MVH  SZ EP   3   0338 49.23                  228.0         174  0.5 2  593 229 
 MME  SZ EP   3   0338 50.21                  219.0         175  0.4 2  601 219 
 MDO  SZ EP   3   0338 55.69                  225.0         175  1.1 2  641 226 
 EDU  SZ EP   3   0338 59.60                  215.0         175  0.8 2  676 215 
 ESY  SZ EP   3   0339  5.89                  210.0         176  1.1 2  726 211 
 EDI  SZ EP   3   0339  7.61                  213.0         175  1.0 2  742 214 
 EDI  SN ES   3   0340 16.07                  213.0         175 -0.7 2  742 214 
 EDI  SN          0340 21.51         39. 0.23 213.0         175         742 214 
 EDI  SE          0340 22.36         38. 0.22 213.0         175         742 214 
 MOR8 SZ IP        339 10.07                                     1.610  757  42 
 MOR8 SZ ES        340 25.51                                     5.410  757  42 
 LOF  SZ EP        339 22.01                                     0.810  866  29 
 FIA0 SZ  Pn      0340 03.10                  288.5 10.278.7  7 -1.8 9 1202  81 
 FIA0 SZ  Sn      0341 56.30                  276.7  4.9 2.7 -3 -2.0 9 1202  81 
 FIA0 SZ  Lg      0343 03.23                  278.6  4.0 5.5 -2 -2.3 9 1202  81 
 ARA0 SZ  Pn      0340 18.38                  232.4  8.327.4 -6 -3.0 8 1334  40 
 ARA0 SZ  Sn      0342 25.26                  229.0  5.3 3.3-10 -1.6 8 1334  40 
 ARA0 SZ  Lg      0343 45.98                                     3.8 8 1334  40 
 APA0 SZ  Pn      0340 46.00                                    -1.6 6 1545  52 
 APA0 SZ  Sn      0343 08.53                                    -4.0 6 1545  52 
 APA0 SZ  Lg      0344 42.46                                     1.6 6 1545  52 
                                                                                
